,address1,city,cnty_cd,cooperator_address1,cooperator_address2,cooperator_city,cooperator_name,cooperator_state,cooperator_zip,county,description,fac_desc_short,fac_fax,fac_id,fac_opn_dat,fac_phone,fac_zip,facility_location,facility_name,latitude,longitude,main_site_facid,main_site_name,opcert_num,operator_address1,operator_address2,operator_city,operator_name,operator_state,operator_zip,ownership_type,region_office,ro_id,state
0,315 South Manning Blvd,Albany,1,315 South Manning Boulevard,,Albany,St. Peter's Health Partners,New York,12208.0,Albany,Hospital,HOSP,,5,1901-01-01T00:00:00.000,5184541550.0,12208,"{'type': 'Point', 'coordinates': [-73.803879, 42.657539]}",St Peters Hospital,42.657539,-73.803879,,,0101004H,315 South Manning Blvd,,Albany,St Peters Hospital Inc,New York,12208,Not for Profit Corporation,Capital District Regional Office,4,New York
1,100 Park Street,Glens Falls,56,,,,,New York,,Warren,Hospital,HOSP,,1005,1901-01-01T00:00:00.000,5189261000.0,12801,"{'type': 'Point', 'coordinates': [-73.645996, 43.30735]}",Glens Falls Hospital,43.30735,-73.645996,,,5601000H,100 Park Street,,Glens Falls,Glens Falls Hospital Inc,New York,12801,Not for Profit Corporation,Capital District Regional Office,4,New York
2,1425 Portland Avenue,Rochester,27,89 Genesee Street,,Rochester,Rochester Regional Health,New York,14611.0,Monroe,Hospital,HOSP,,411,1901-01-01T00:00:00.000,5859224000.0,14621,"{'type': 'Point', 'coordinates': [-77.584503, 43.192619]}",Rochester General Hospital,43.192619,-77.584503,,,2701003H,905 Culver Road,,Rochester,Rochester General Hospital Inc,New York,14609,Not for Profit Corporation,Western Regional Office - Rochester,2,New York
3,10-42 Mitchell Avenue,Binghamton,3,,,,,New York,,Broome,Hospital,HOSP,,42,1980-02-01T00:00:00.000,6077622200.0,13903,"{'type': 'Point', 'coordinates': [-75.91423, 42.088062]}",United Health Services Hospitals Inc. - Binghamton General Hospital,42.088062,-75.91423,,,0303001H,Po Box 54o,,Johnson City,United Health Services Hospitals Inc,New York,13790,Not for Profit Corporation,Central New York Regional Office,3,New York
4,189 E Main Street,Westfield,6,232 West 25th Street,,Erie,St. Vincent's Health System,New York,16544.0,Chautauqua,Hospital,HOSP,,111,1901-01-01T00:00:00.000,7163264921.0,14787,"{'type': 'Point', 'coordinates': [-79.569412, 42.327965]}",Westfield Memorial Hospital Inc,42.327965,-79.569412,,,0632000H,189 East Main Street,,Westfield,Westfield Memorial Hospital Inc,New York,14787,Not for Profit Corporation,Western Regional Office - Buffalo,1,New York
5,43 Pearl Street West,Sidney,12,1 Atwell Road,,Cooperstown,Bassett Healthcare Network,New York,13326.0,Delaware,Hospital,HOSP,,8554,2008-01-11T00:00:00.000,6075612021.0,13838,"{'type': 'Point', 'coordinates': [-75.39492, 42.30471]}",Aurelia Osborn Fox Memorial Hospital - Tri Town Campus,42.30471,-75.39492,739.0,Aurelia Osborn Fox Memorial Hospital,3801000H,One Norton Avenue,,Oneonta,Aurelia Osborn Fox Memorial Hospital Society Inc,New York,13820,Not for Profit Corporation,Capital District Regional Office,4,New York
6,50 Leroy St,Potsdam,44,50 Leroy Street,,Potsdam,"St. Lawrence Health System, Inc.",New York,13676.0,Saint Lawrence,Hospital,HOSP,,815,1901-01-01T00:00:00.000,3152653300.0,13676,"{'type': 'Point', 'coordinates': [-74.981529, 44.676151]}",Canton-Potsdam Hospital,44.676151,-74.981529,,,4429000H,50 Leroy St,,Potsdam,Canton-Potsdam Hospital,New York,13676,Not for Profit Corporation,Central New York Regional Office,3,New York
7,25-10 30th Avenue,Long Island City,7096,One Gustave L. Levy Place,,New York,"Mount Sinai Hospitals Group, Inc.",New York,10029.0,Queens,Hospital,HOSP,,1639,1979-08-01T00:00:00.000,7189321000.0,11102,"{'type': 'Point', 'coordinates': [-73.924461, 40.768269]}",Mount Sinai Hospital - Mount Sinai Hospital of Queens,40.768269,-73.924461,1456.0,Mount Sinai Hospital,7002024H,One Gustave L Levy Place,,New York,The Mount Sinai Hospital,New York,10029,Not for Profit Corporation,Metropolitan Area Regional Office - New York City,5,New York
8,12 North 7th Avenue,Mount Vernon,59,111 East 210th Street,,Bronx,"Montefiore Health System, Inc",New York,10467.0,Westchester,Hospital,HOSP,9146642113.0,1061,1901-01-01T00:00:00.000,9143616100.0,10550,"{'type': 'Point', 'coordinates': [-73.840004, 40.912476]}",Montefiore Mount Vernon Hospital,40.912476,-73.840004,,,5903001H,12 North 7th Avenue,,Mount Vernon,"Montefiore Mount Vernon Hospital, Inc.",New York,10550,Not for Profit Corporation,Metropolitan Area Regional Office - New Rochelle,6,New York
9,1000 Tenth Avenue,New York,7093,One Gustave L. Levy Place,,New York,"Mount Sinai Hospitals Group, Inc.",New York,10029.0,New York,Hospital,HOSP,,1466,1901-01-01T00:00:00.000,2125237225.0,10019,"{'type': 'Point', 'coordinates': [-73.987785, 40.770092]}",Mount Sinai West,40.770092,-73.987785,,,7002032H,Amsterdam Avenue At 114th Street,,New York,St Lukes Roosevelt Hospital Center Inc,New York,10025,Not for Profit Corporation,Metropolitan Area Regional Office - New York City,5,New York
10,111 East 210th Street,Bronx,7094,111 East 210th Street,,Bronx,"Montefiore Health System, Inc",New York,10467.0,Bronx,Hospital,HOSP,,1169,1901-01-01T00:00:00.000,7189202001.0,10467,"{'type': 'Point', 'coordinates': [-73.880562, 40.879951]}",Montefiore Medical Center - Henry & Lucy Moses Div,40.879951,-73.880562,,,7000006H,111 East 210th Street,,Bronx,Montefiore Medical Center,New York,10467,Not for Profit Corporation,Metropolitan Area Regional Office - New York City,5,New York
11,2201 Hempstead Turnpike,East Meadow,29,,,,,New York,,Nassau,Hospital,HOSP,,528,1901-01-01T00:00:00.000,5165720123.0,11554,"{'type': 'Point', 'coordinates': [-73.554321, 40.725353]}",Nassau University Medical Center,40.725353,-73.554321,,,2950002H,240 Old Country Road,,Mineola,Nassau Health Care Corporation,New York,11501,County,Metropolitan Area Regional Office - Long Island,7,New York
12,321 Genesee Street,Oneida,26,,,,,New York,,Madison,Hospital,HOSP,,397,1979-02-01T00:00:00.000,3153636000.0,13421,"{'type': 'Point', 'coordinates': [-75.654449, 43.07869]}",Oneida Healthcare,43.07869,-75.654449,,,2601001H,323 Genesee Street,,Oneida,"Oneida Health Systems, Inc",New York,13421,Not for Profit Corporation,Central New York Regional Office,3,New York
13,2601 Ocean Parkway,Brooklyn,7095,,,,,New York,,Kings,Hospital,HOSP,,1294,1901-01-01T00:00:00.000,7186163000.0,11235,"{'type': 'Point', 'coordinates': [-73.965797, 40.58662]}",Coney Island Hospital,40.58662,-73.965797,,,7001009H,125 Worth Street,,New York,New York City Health and Hospital Corporation,New York,10013,Municipality,Metropolitan Area Regional Office - New York City,5,New York
14,51 Glasgow Avenue,Jamestown,6,207 Foote Avenue,,Jamestown,"UPMC Chautauqua Services, Inc.",New York,14701.0,Chautauqua,Hospital,HOSP,7166648336.0,102,1990-08-17T00:00:00.000,7164870141.0,14701,"{'type': 'Point', 'coordinates': [-79.245094, 42.091541]}",UPMC Chautauqua at WCA,42.091541,-79.245094,103.0,UPMC Chautauqua at WCA,0602001H,207 Foote Avenue,,Jamestown,UPMC Chautauqua at WCA,New York,14701,Not for Profit Corporation,Western Regional Office - Buffalo,1,New York
15,50 Route 25A,Smithtown,51,1 Huntington Quadrangle,,Melville,St Catherine Siena Med Ctr,New York,11747.0,Suffolk,Hospital,HOSP,,943,1977-07-12T00:00:00.000,6318623107.0,11787,"{'type': 'Point', 'coordinates': [-73.220222, 40.867531]}",St Catherine of Siena Hospital,40.867531,-73.220222,,,5157003H,1 Huntington Quadrangle,,Melville,"Catholic Health System of Long Island, Inc.",New York,11747,Not for Profit Corporation,Metropolitan Area Regional Office - Long Island,7,New York
16,310 East 14th Street,New York,7093,One Gustave L. Levy Place,,New York,"Mount Sinai Hospitals Group, Inc.",New York,10029.0,New York,Hospital,HOSP,,1460,1901-01-01T00:00:00.000,2129794300.0,10003,"{'type': 'Point', 'coordinates': [-73.984711, 40.732189]}",New York Eye and Ear Infirmary of Mount Sinai,40.732189,-73.984711,,,7002026H,310 East 14 St,,New York,NY Eye and Ear Infirmary Inc,New York,10003,Not for Profit Corporation,Metropolitan Area Regional Office - New York City,5,New York
17,600 Roe Avenue,Elmira,7,600 Roe Avenue,,Elmira,Arnot Health Inc.,New York,14905.0,Chemung,Hospital,HOSP,,116,1901-01-01T00:00:00.000,6077374230.0,14905,"{'type': 'Point', 'coordinates': [-76.826782, 42.099285]}",Arnot Ogden Medical Center,42.099285,-76.826782,,,0701000H,600 Roe Avenue,,Elmira,Arnot Ogden Medical Center,New York,14901,Not for Profit Corporation,Western Regional Office - Rochester,2,New York
18,83 Amity Street,Brooklyn,7095,,,,,New York,,Kings,Hospital,HOSP,,9753,2014-10-31T00:00:00.000,,11201,"{'type': 'Point', 'coordinates': [-73.997478, 40.689615]}",NYU Langone Health-Cobble Hill,40.689615,-73.997478,1463.0,NYU Langone Hospitals,7002053H,550 First Avenue,,New York,NYU Langone Hospitals,New York,10016,Not for Profit Corporation,Metropolitan Area Regional Office - New York City,5,New York
19,4988 Sthwy 30,Amsterdam,28,,,,,New York,,Montgomery,Hospital,HOSP,,482,1901-01-01T00:00:00.000,5188423100.0,12010,"{'type': 'Point', 'coordinates': [-74.186272, 42.961201]}",St. Mary's Healthcare - Amsterdam Memorial Campus,42.961201,-74.186272,484.0,St. Mary's Healthcare,2801001H,427 Guy Park Ave,,Amsterdam,St. Mary's Healthcare,New York,12010,Not for Profit Corporation,Capital District Regional Office,4,New York
20,2525 Kings Highway,Brooklyn,7095,,,,,New York,,Kings,Hospital,HOSP,,1293,1901-01-01T00:00:00.000,7186925300.0,11229,"{'type': 'Point', 'coordinates': [-73.948967, 40.613419]}","New York Community Hospital of Brooklyn, Inc",40.613419,-73.948967,,,7001008H,2525 Kings Highway,,Brooklyn,"New York Community Hospital of Brooklyn,Inc",New York,11229,Not for Profit Corporation,Metropolitan Area Regional Office - New York City,5,New York
21,One Norton Avenue,Oneonta,38,1 Atwell Road,,Cooperstown,Bassett Healthcare Network,New York,13326.0,Otsego,Hospital,HOSP,,739,1901-01-01T00:00:00.000,6074322000.0,13820,"{'type': 'Point', 'coordinates': [-75.053261, 42.457405]}",Aurelia Osborn Fox Memorial Hospital,42.457405,-75.053261,,,3801000H,One Norton Avenue,,Oneonta,Aurelia Osborn Fox Memorial Hospital Society Inc,New York,13820,Not for Profit Corporation,Capital District Regional Office,4,New York
22,1300 Massachusetts Avenue,Troy,41,315 South Manning Boulevard,,Albany,St. Peter's Health Partners,New York,12208.0,Rensselaer,Hospital,HOSP,,755,1979-08-01T00:00:00.000,5182685000.0,12180,"{'type': 'Point', 'coordinates': [-73.675735, 42.743382]}",Samaritan Hospital - St. Mary's Campus,42.743382,-73.675735,756.0,Samaritan Hospital,4102002H,2215 Burdett Avenue,,Troy,Samaritan Hospital of Troy NY Inc,New York,12180,Not for Profit Corporation,Capital District Regional Office,4,New York
23,1500 N James St,Rome,32,,,,,New York,,Oneida,Hospital,HOSP,,589,1979-08-01T00:00:00.000,3153387000.0,13440,"{'type': 'Point', 'coordinates': [-75.443466, 43.229935]}","Rome Memorial Hospital, Inc",43.229935,-75.443466,,,3201002H,1500 North James Street,,Rome,"Rome Memorial Hospital, Inc",New York,13440,Not for Profit Corporation,Central New York Regional Office,3,New York
24,1 Brookdale Plaza,Brooklyn,7095,1 Brookdale Plaza,Care of Alex Rovt Chairman of the Board,Brooklyn,"One Brooklyn Health System, Inc.",New York,11212.0,Kings,Hospital,HOSP,,1286,1901-01-01T00:00:00.000,7182405276.0,11212-3139,"{'type': 'Point', 'coordinates': [-73.912579, 40.655066]}",Brookdale Hospital Medical Center,40.655066,-73.912579,,,7001002H,One Brookdale Plaza,,Brooklyn,The Brookdale Hospital Medical Center,New York,11212,Not for Profit Corporation,Metropolitan Area Regional Office - New York City,5,New York
25,6010 East Malloy Road,Syracuse,33,736 Irving Avenue,,Syracuse,"Crouse Health System, Inc.",New York,13210.0,Onondaga,Hospital,HOSP,3154378366.0,9059,2009-06-01T00:00:00.000,3154342470.0,13211,"{'type': 'Point', 'coordinates': [-76.098633, 43.099155]}",Crouse Hospital - Commonwealth Division,43.099155,-76.098633,636.0,Crouse Hospital,3301008H,736 Irving Avenue,,Syracuse,Crouse Health Hospital Inc,New York,13210,Not for Profit Corporation,Central New York Regional Office,3,New York
26,1230 York Avenue,New York,7093,,,,,New York,,New York,Hospital,HOSP,,1465,1901-01-01T00:00:00.000,2123277511.0,10021,"{'type': 'Point', 'coordinates': [-73.956512, 40.762962]}",Rockefeller University Hospital,40.762962,-73.956512,,,7002031H,1230 York Avenue,,New York,The Rockefeller University Inc,New York,10021,Not for Profit Corporation,Metropolitan Area Regional Office - New York City,5,New York
27,133 Park Street,Malone,16,111 Colchester Avenue,,Burlington,"The University of Vermont Health Network, Inc.",New York,5401.0,Franklin,Hospital,HOSP,,325,1901-01-01T00:00:00.000,5184833000.0,12953,"{'type': 'Point', 'coordinates': [-74.291893, 44.85677]}",The University of Vermont Health Network - Alice Hyde Medical Center,44.85677,-74.291893,,,1624000H,115 Park St,,Malone,Alice Hyde Medical Center,New York,12953,Not for Profit Corporation,Capital District Regional Office,4,New York
28,1825 Eastchester Rd,Bronx,7094,111 East 210th Street,,Bronx,"Montefiore Health System, Inc",New York,10467.0,Bronx,Hospital,HOSP,,3058,1901-01-01T00:00:00.000,7189042001.0,10461,"{'type': 'Point', 'coordinates': [-73.845055, 40.849575]}",Montefiore Med Center - Jack D Weiler Hosp of A Einstein College Div,40.849575,-73.845055,1169.0,Montefiore Medical Center - Henry & Lucy Moses Div,7000006H,111 East 210th Street,,Bronx,Montefiore Medical Center,New York,10467,Not for Profit Corporation,Metropolitan Area Regional Office - New York City,5,New York
29,270-05 76th Ave,New Hyde Park,7096,2000 Marcus Ave.,,New Hyde Park,"Northwell Healthcare, Inc.",New York,11042.0,Queens,Hospital,HOSP,,1630,1901-01-01T00:00:00.000,7184707764.0,11040,"{'type': 'Point', 'coordinates': [-73.706848, 40.753349]}",Long Island Jewish Medical Center,40.753349,-73.706848,,,7003004H,270-05 76 Avenue,,New Hyde Park,Long Island Jewish Medical Center,New York,11040,Not for Profit Corporation,Metropolitan Area Regional Office - New York City,5,New York
30,25 Hackett Blvd,Albany,1,New Scotland Avenue,,Albany,Albany Medical Center,New York,12208.0,Albany,Hospital,HOSP,,2,1980-02-01T00:00:00.000,5182621200.0,12208,"{'type': 'Point', 'coordinates': [-73.77829, 42.645485]}",Albany Medical Center - South Clinical Campus,42.645485,-73.77829,1.0,Albany Medical Center Hospital,0101000H,New Scotland Avenue,,Albany,Albany Medical Center Hospital,New York,12208,Not for Profit Corporation,Capital District Regional Office,4,New York
31,1300 Roanoke Avenue,Riverhead,51,2000 Marcus Ave.,,New Hyde Park,"Northwell Healthcare, Inc.",New York,11042.0,Suffolk,Hospital,HOSP,,938,1901-01-01T00:00:00.000,5165486000.0,11901,"{'type': 'Point', 'coordinates': [-72.674278, 40.933643000000004]}",Peconic Bay Medical Center,40.933643,-72.674278,,,5155000H,1300 Roanoke,,Riverhead,Central Suffolk Hospital,New York,11901,Not for Profit Corporation,Metropolitan Area Regional Office - Long Island,7,New York
32,1275 York Avenue,New York,7093,,,,,New York,,New York,Hospital,HOSP,,1453,1901-01-01T00:00:00.000,2126392000.0,10065,"{'type': 'Point', 'coordinates': [-73.956812, 40.764386]}",Memorial Hospital for Cancer and Allied Diseases,40.764386,-73.956812,,,7002020H,1275 York Avenue,,New York,Memorial Hospital for Cancer and Allied Diseases Inc,New York,10021,Not for Profit Corporation,Metropolitan Area Regional Office - New York City,5,New York
33,234 East 149th Street,Bronx,7094,,,,,New York,,Bronx,Hospital,HOSP,,1172,1901-01-01T00:00:00.000,7185795700.0,10451,"{'type': 'Point', 'coordinates': [-73.92421, 40.817661]}",Lincoln Medical & Mental Health Center,40.817661,-73.92421,,,7000008H,125 Worth Street,,New York,New York City Health and Hospital Corporation,New York,10013,Municipality,Metropolitan Area Regional Office - New York City,5,New York
34,900 Franklin Avenue,Valley Stream,29,2000 Marcus Ave.,,New Hyde Park,"Northwell Healthcare, Inc.",New York,11042.0,Nassau,Hospital,HOSP,,518,1901-01-01T00:00:00.000,5162566000.0,11580,"{'type': 'Point', 'coordinates': [-73.685814, 40.681789]}",Long Island Jewish Valley Stream,40.681789,-73.685814,1630.0,Long Island Jewish Medical Center,7003004H,270-05 76 Avenue,,New Hyde Park,Long Island Jewish Medical Center,New York,11040,Not for Profit Corporation,Metropolitan Area Regional Office - Long Island,7,New York
35,71 Prospect Ave,Hudson,10,New Scotland Avenue,,Albany,Albany Medical Center,New York,12208.0,Columbia,Hospital,HOSP,,146,1901-01-01T00:00:00.000,5188287601.0,12534,"{'type': 'Point', 'coordinates': [-73.776306, 42.246239]}",Columbia Memorial Hospital,42.246239,-73.776306,,,1001000H,71 Prospect Avenue,,Hudson,Columbia Memorial Hospital,New York,12534,Not for Profit Corporation,Capital District Regional Office,4,New York
36,74 Bunner Street,Oswego,37,,,,,New York,,Oswego,Hospital,HOSP,,12,1981-02-01T00:00:00.000,3153495526.0,13126,"{'type': 'Point', 'coordinates': [-76.490562, 43.450497]}",Oswego Hospital - Alvin L Krakau Comm Mtl Health Center Div,43.450497,-76.490562,727.0,Oswego Hospital,3702000H,110 West Sixth Street,,Oswego,Oswego Hospital Inc,New York,13126,Not for Profit Corporation,Central New York Regional Office,3,New York
37,Two Park Avenue,Yonkers,59,967 North Broadway,,Yonkers,"Riverside Health Care System, Inc.",New York,10701.0,Westchester,Hospital,HOSP,,1099,1979-08-01T00:00:00.000,9149647300.0,10703,"{'type': 'Point', 'coordinates': [-73.892181, 40.939613]}",SJRH - Park Care Pavilion,40.939613,-73.892181,1097.0,SJRH - St Johns Division,5907001H,967 North Broadway,,Yonkers,St Johns Riverside Hospital Inc,New York,10701,Not for Profit Corporation,Metropolitan Area Regional Office - New Rochelle,6,New York
38,301 E 17th Street,New York,7093,,,,,New York,,New York,Hospital,HOSP,,1446,1980-02-01T00:00:00.000,2125986000.0,10003,"{'type': 'Point', 'coordinates': [-73.98307, 40.734127]}",NYU Langone Orthopedic Hospital,40.734127,-73.98307,1463.0,NYU Langone Hospitals,7002053H,550 First Avenue,,New York,NYU Langone Hospitals,New York,10016,Not for Profit Corporation,Metropolitan Area Regional Office - New York City,5,New York
39,529 Central Avenue,Dunkirk,6,,,,,New York,,Chautauqua,Hospital,HOSP,,98,1901-01-01T00:00:00.000,7163661111.0,14048,"{'type': 'Point', 'coordinates': [-79.33387, 42.480774]}","Brooks-TLC Hospital System, Inc.",42.480774,-79.33387,,,0601000H,529 Central Avenue,,Dunkirk,"Brooks-TLC Hospital System, Inc.",New York,14048,Not for Profit Corporation,Western Regional Office - Buffalo,1,New York
40,845 Routes 5&20,Irving,6,,,,,New York,,Chautauqua,Hospital,HOSP,,114,1980-08-01T00:00:00.000,7169517000.0,14081,"{'type': 'Point', 'coordinates': [-79.126991, 42.559372]}","Brooks-TLC Hospital System, Inc.",42.559372,-79.126991,98.0,"Brooks-TLC Hospital System, Inc.",0601000H,529 Central Avenue,,Dunkirk,"Brooks-TLC Hospital System, Inc.",New York,14048,Not for Profit Corporation,Western Regional Office - Buffalo,1,New York
41,99 East State Street,Gloversville,17,,,,,New York,,Fulton,Hospital,HOSP,,330,1901-01-01T00:00:00.000,5187258621.0,12078,"{'type': 'Point', 'coordinates': [-74.330643, 43.068096]}",Nathan Littauer Hospital,43.068096,-74.330643,,,1701000H,99 East State Street,,Gloversville,Nathan Littauer Hospital Inc,New York,12078,Not for Profit Corporation,Capital District Regional Office,4,New York
42,16 Guion Place,New Rochelle,59,111 East 210th Street,,Bronx,"Montefiore Health System, Inc",New York,10467.0,Westchester,Hospital,HOSP,9143671516.0,1072,1901-01-01T00:00:00.000,9143653700.0,10802,"{'type': 'Point', 'coordinates': [-73.787086, 40.913021]}",Montefiore New Rochelle Hospital,40.913021,-73.787086,,,5904001H,16 Guion Place,,New Rochelle,"Montefiore New Rochelle Hospital, Inc.",New York,10802,Not for Profit Corporation,Metropolitan Area Regional Office - New Rochelle,6,New York
43,Elm and Carlton Streets,Buffalo,14,,,,,New York,,Erie,Hospital,HOSP,,216,1901-01-01T00:00:00.000,7168452300.0,14263,"{'type': 'Point', 'coordinates': [-78.865013, 42.898525]}",Roswell Park Cancer Institute,42.898525,-78.865013,,,1401010H,Elm & Carlton Streets,,Buffalo,Roswell Park Cancer Institute Corporation,New York,14263,Public Benefit Corporation,Western Regional Office - Buffalo,1,New York
44,45 Reade Place,Poughkeepsie,13,Reade Place,,Poughkeepsie,Vassar Brothers Hospital Inc,New York,12601.0,Dutchess,Hospital,HOSP,,181,1901-01-01T00:00:00.000,8454548500.0,12601,"{'type': 'Point', 'coordinates': [-73.935799, 41.694523]}",Vassar Brothers Medical Center,41.694523,-73.935799,,,1302001H,45 Reade Place,,Poughkeepsie,"Health Quest Systems, Inc.",New York,12601,Not for Profit Corporation,Metropolitan Area Regional Office - New Rochelle,6,New York
45,101 St Andrews Lane,Glen Cove,29,2000 Marcus Ave.,,New Hyde Park,"Northwell Healthcare, Inc.",New York,11042.0,Nassau,Hospital,HOSP,,490,1901-01-01T00:00:00.000,5166747588.0,11542,"{'type': 'Point', 'coordinates': [-73.62159, 40.871731]}",Glen Cove Hospital,40.871731,-73.62159,,,2901000H,St Andrews Lane,,Glen Cove,Glen Cove Hospital,New York,11542,Not for Profit Corporation,Metropolitan Area Regional Office - Long Island,7,New York
46,169 Riverside Drive,Binghamton,3,,,,,New York,,Broome,Hospital,HOSP,,43,1901-01-01T00:00:00.000,6077985111.0,13905,"{'type': 'Point', 'coordinates': [-75.935646, 42.092606]}",Our Lady of Lourdes Memorial Hospital Inc,42.092606,-75.935646,,,0301001H,169 Riverside Drive,,Binghamton,Our Lady of Lourdes Memorial Hospital Inc,New York,13905,Not for Profit Corporation,Central New York Regional Office,3,New York
47,1555 Long Pond Road,Rochester,27,89 Genesee Street,,Rochester,Rochester Regional Health,New York,14611.0,Monroe,Hospital,HOSP,,471,1901-01-01T00:00:00.000,5857237000.0,14626,"{'type': 'Point', 'coordinates': [-77.701538, 43.191551]}",The Unity Hospital of Rochester,43.191551,-77.701538,,,2754001H,1555 Long Pond Road,,Rochester,Park Ridge Hospital Inc,New York,14626,Not for Profit Corporation,Western Regional Office - Rochester,2,New York
48,830 Washington St,Watertown,22,,,,,New York,,Jefferson,Hospital,HOSP,,367,1901-01-01T00:00:00.000,3157854000.0,13601,"{'type': 'Point', 'coordinates': [-75.912827, 43.964928]}",Samaritan Medical Center,43.964928,-75.912827,,,2201000H,830 Washington St,,Watertown,Samaritan Medical Center,New York,13601,Not for Profit Corporation,Central New York Regional Office,3,New York
49,400 North Main Street,Warsaw,60,,,,,New York,,Wyoming,Hospital,HOSP,,1153,1901-01-01T00:00:00.000,5857868940.0,14569,"{'type': 'Point', 'coordinates': [-78.132454, 42.753513]}",Wyoming County Community Hospital,42.753513,-78.132454,,,6027000H,Wyoming County Courthouse,,Warsaw,County of Wyoming,New York,14569,County,Western Regional Office - Buffalo,1,New York
50,374 Stockholm Street,Brooklyn,7095,,,,,New York,,Kings,Hospital,HOSP,,1318,1901-01-01T00:00:00.000,7189637101.0,11237,"{'type': 'Point', 'coordinates': [-73.91774, 40.704517]}",Wyckoff Heights Medical Center,40.704517,-73.91774,,,7001035H,374 Stockholm St,,Brooklyn,Wyckoff Heights Medical Center,New York,11237,Not for Profit Corporation,Metropolitan Area Regional Office - New York City,5,New York
51,1276 Fulton Avenue,Bronx,7094,,,,,New York,,Bronx,Hospital,HOSP,,1164,1901-01-01T00:00:00.000,7189018800.0,10456,"{'type': 'Point', 'coordinates': [-73.903656, 40.831772]}",BronxCare Hospital Center,40.831772,-73.903656,,,7000001H,1276 Fulton Avenue,,Bronx,BronxCare Health System,New York,10456,Not for Profit Corporation,Metropolitan Area Regional Office - New York City,5,New York
52,1650 Grand Concourse,Bronx,7094,,,,,New York,,Bronx,Hospital,HOSP,,1178,1901-01-01T00:00:00.000,7189018800.0,10457,"{'type': 'Point', 'coordinates': [-73.911545, 40.843609]}",BronxCare Hospital Center,40.843609,-73.911545,1164.0,BronxCare Hospital Center,7000001H,1276 Fulton Avenue,,Bronx,BronxCare Health System,New York,10456,Not for Profit Corporation,Metropolitan Area Regional Office - New York City,5,New York
53,411 Canisteo Street,Hornell,50,,,,,New York,,Steuben,Hospital,HOSP,,870,1901-01-01T00:00:00.000,6073248000.0,14843,"{'type': 'Point', 'coordinates': [-77.660164, 42.314438]}",St. James Hospital,42.314438,-77.660164,,,5002001H,411 Canisteo Street,,Hornell,St. James Hospital,New York,14843,Not for Profit Corporation,Western Regional Office - Rochester,2,New York
54,255 Lafayette Avenue,Suffern,43,255 Lafayette Avenue,,Suffern,Bon Secours Charity Health System Inc.,New York,10901.0,Rockland,Hospital,HOSP,,779,1901-01-01T00:00:00.000,8453685000.0,10901,"{'type': 'Point', 'coordinates': [-74.133003, 41.112255]}",Good Samaritan Hospital of Suffern,41.112255,-74.133003,,,4329000H,Route 59,,Suffern,Good Samaritan Hosp of Suffern,New York,10901,Not for Profit Corporation,Metropolitan Area Regional Office - New Rochelle,6,New York
55,670 Stoneleigh Avenue,Carmel,39,Stoneleigh Avenue,,Carmel,Putnam Hospital Center,New York,10512.0,Putnam,Hospital,HOSP,,752,1901-01-01T00:00:00.000,8452795711.0,10512,"{'type': 'Point', 'coordinates': [-73.664413, 41.384766]}",Putnam Hospital Center,41.384766,-73.664413,,,3950000H,Stoneleigh Avenue,,Carmel,"Health Quest Systems, Inc.",New York,10512,Not for Profit Corporation,Metropolitan Area Regional Office - New Rochelle,6,New York
56,355 Bard Avenue,Staten Island,7097,355 Bard Avenue,,Staten Island,Richmond University Medical Center,New York,10310.0,Richmond,Hospital,HOSP,,1738,1979-08-01T00:00:00.000,7188182413.0,10310,"{'type': 'Point', 'coordinates': [-74.106674, 40.635807]}",Richmond University Medical Center,40.635807,-74.106674,,,7004010H,355 Bard Avenue,,Staten Island,Bridge Regional Health System,New York,10310,Not for Profit Corporation,Metropolitan Area Regional Office - New York City,5,New York
57,301 Prospect Avenue,Syracuse,33,20555 Victor Parkway,,Livonia,Trinity Health Corporation,New York,48152.0,Onondaga,Hospital,HOSP,,630,1901-01-01T00:00:00.000,3154485111.0,13203,"{'type': 'Point', 'coordinates': [-76.149384, 43.055744]}",St. Joseph's Hospital Health Center,43.055744,-76.149384,,,3301003H,301 Prospect Avenue,,Syracuse,St Joseph's Hospital Health Center,New York,13203,Not for Profit Corporation,Central New York Regional Office,3,New York
58,301 Prospect Avenue,Syracuse,33,301 Prospect Ave.,,Syracuse,"St. Joseph's Health, Inc.",New York,13203.0,Onondaga,Hospital,HOSP,,630,1901-01-01T00:00:00.000,3154485111.0,13203,"{'type': 'Point', 'coordinates': [-76.149384, 43.055744]}",St. Joseph's Hospital Health Center,43.055744,-76.149384,,,3301003H,301 Prospect Avenue,,Syracuse,St Joseph's Hospital Health Center,New York,13203,Not for Profit Corporation,Central New York Regional Office,3,New York
59,One Healthy Way,Oceanside,29,One Gustave L. Levy Place,,New York,"Mount Sinai Hospitals Group, Inc.",New York,10029.0,Nassau,Hospital,HOSP,,527,1901-01-01T00:00:00.000,5166323000.0,11572,"{'type': 'Point', 'coordinates': [-73.6315, 40.649601]}",South Nassau Communities Hospital,40.649601,-73.6315,,,2950001H,2445 Oceanside Road,,Oceanside,South Nassau Communities Hospital Inc,New York,11572,Not for Profit Corporation,Metropolitan Area Regional Office - Long Island,7,New York
60,325 East Bay Drive,Long Beach,29,One Gustave L. Levy Place,,New York,"Mount Sinai Hospitals Group, Inc.",New York,10029.0,Nassau,Hospital,HOSP,,9691,2014-06-30T00:00:00.000,5168701010.0,11561,"{'type': 'Point', 'coordinates': [-73.654958, 40.594237]}",South Nassau Communities Hospital Off-Campus Emergency Department,40.594237,-73.654958,527.0,South Nassau Communities Hospital,2950001H,2445 Oceanside Road,,Oceanside,South Nassau Communities Hospital Inc,New York,11572,Not for Profit Corporation,Metropolitan Area Regional Office - Long Island,7,New York
61,621 Tenth Street,Niagara Falls,31,,,,,New York,,Niagara,Hospital,HOSP,,574,1901-01-01T00:00:00.000,7162784000.0,14302,"{'type': 'Point', 'coordinates': [-79.0504, 43.094048]}",Niagara Falls Memorial Medical Center,43.094048,-79.0504,,,3102000H,621 Tenth St,,Niagara Falls,Niagara Falls Memorial Medical Center,New York,14302,Not for Profit Corporation,Western Regional Office - Buffalo,1,New York
62,270 Park Avenue,Huntington,51,2000 Marcus Ave.,,New Hyde Park,"Northwell Healthcare, Inc.",New York,11042.0,Suffolk,Hospital,HOSP,,913,1901-01-01T00:00:00.000,6313512200.0,11743,"{'type': 'Point', 'coordinates': [-73.417442, 40.879513]}",Huntington Hospital,40.879513,-73.417442,,,5153000H,270 Park Avenue,,Huntington,Huntington Hospital Association,New York,11743,Not for Profit Corporation,Metropolitan Area Regional Office - Long Island,7,New York
63,515 Main Street,Olean,4,100 High Street,,Buffalo,Kaleida Health,New York,14203.0,Cattaraugus,Hospital,HOSP,7163756394.0,66,1901-01-01T00:00:00.000,7163756171.0,14760,"{'type': 'Point', 'coordinates': [-78.42688, 42.089844]}",Olean General Hospital,42.089844,-78.42688,,,0401001H,515 Main Street,,Olean,Olean General Hospital Inc,New York,14760,Not for Profit Corporation,Western Regional Office - Buffalo,1,New York
64,1300 Massachusetts Avenue,Troy,41,20555 Victor Parkway,,Livonia,Trinity Health Corporation,New York,48152.0,Rensselaer,Hospital,HOSP,,755,1979-08-01T00:00:00.000,5182685000.0,12180,"{'type': 'Point', 'coordinates': [-73.675735, 42.743382]}",Samaritan Hospital - St. Mary's Campus,42.743382,-73.675735,756.0,Samaritan Hospital,4102002H,2215 Burdett Avenue,,Troy,Samaritan Hospital of Troy NY Inc,New York,12180,Not for Profit Corporation,Capital District Regional Office,4,New York
65,2215 Burdett Avenue,Troy,41,20555 Victor Parkway,,Livonia,Trinity Health Corporation,New York,48152.0,Rensselaer,Hospital,HOSP,,756,1901-01-01T00:00:00.000,5182713300.0,12180,"{'type': 'Point', 'coordinates': [-73.671455, 42.733574]}",Samaritan Hospital,42.733574,-73.671455,,,4102002H,2215 Burdett Avenue,,Troy,Samaritan Hospital of Troy NY Inc,New York,12180,Not for Profit Corporation,Capital District Regional Office,4,New York
66,160 North Midland Avenue,Nyack,43,111 East 210th Street,,Bronx,"Montefiore Health System, Inc",New York,10467.0,Rockland,Hospital,HOSP,,776,1901-01-01T00:00:00.000,8453482000.0,10960,"{'type': 'Point', 'coordinates': [-73.924957, 41.096249]}",Montefiore Nyack,41.096249,-73.924957,,,4324000H,Midland Avenue,,Nyack,Montefiore Nyack Hospital,New York,10960,Not for Profit Corporation,Metropolitan Area Regional Office - New Rochelle,6,New York
67,3 Mercycare Lane,Guilderland,1,20555 Victor Parkway,,Livonia,Trinity Health Corporation,New York,48152.0,Albany,Hospital,HOSP,,9431,2012-12-28T00:00:00.000,5184526701.0,12084,"{'type': 'Point', 'coordinates': [-73.904968, 42.701252]}",St. Peter's Addiction Recovery Center,42.701252,-73.904968,5.0,St Peters Hospital,0101004H,315 South Manning Blvd,,Albany,St Peters Hospital Inc,New York,12208,Not for Profit Corporation,Capital District Regional Office,4,New York
68,1270 Belmont Avenue,Schenectady,46,20555 Victor Parkway,,Livonia,Trinity Health Corporation,New York,48152.0,Schenectady,Hospital,HOSP,,831,1901-01-01T00:00:00.000,5183824500.0,12308,"{'type': 'Point', 'coordinates': [-73.913651, 42.82206]}",Sunnyview Hospital and Rehabilitation Center,42.82206,-73.913651,,,4601004H,1270 Belmont Avenue,,Schenectady,Sunnyview Hospital and Rehabilitation Center Inc,New York,12308,Not for Profit Corporation,Capital District Regional Office,4,New York
69,315 South Manning Blvd,Albany,1,20555 Victor Parkway,,Livonia,Trinity Health Corporation,New York,48152.0,Albany,Hospital,HOSP,,5,1901-01-01T00:00:00.000,5184541550.0,12208,"{'type': 'Point', 'coordinates': [-73.803879, 42.657539]}",St Peters Hospital,42.657539,-73.803879,,,0101004H,315 South Manning Blvd,,Albany,St Peters Hospital Inc,New York,12208,Not for Profit Corporation,Capital District Regional Office,4,New York
70,600 Northern Blvd,Albany,1,20555 Victor Parkway,,Livonia,Trinity Health Corporation,New York,48152.0,Albany,Hospital,HOSP,,4,1901-01-01T00:00:00.000,5184713221.0,12204,"{'type': 'Point', 'coordinates': [-73.749268, 42.674271]}",Albany Memorial Hospital,42.674271,-73.749268,,,0101003H,Memorial Hospital,,Albany,"Memorial Hospital, Albany NY",New York,12204,Not for Profit Corporation,Capital District Regional Office,4,New York
71,102-01 66th Road,Forest Hills,7096,2000 Marcus Ave.,,New Hyde Park,"Northwell Quality and Medical Affairs, Inc.",New York,11042.0,Queens,Hospital,HOSP,,1638,1901-01-01T00:00:00.000,5165624060.0,11375,"{'type': 'Point', 'coordinates': [-73.851036, 40.728745]}",Long Island Jewish Forest Hills,40.728745,-73.851036,1630.0,Long Island Jewish Medical Center,7003004H,270-05 76 Avenue,,New Hyde Park,Long Island Jewish Medical Center,New York,11040,Not for Profit Corporation,Metropolitan Area Regional Office - New York City,5,New York
72,270-05 76th Ave,New Hyde Park,7096,2000 Marcus Ave.,,New Hyde Park,"Northwell Quality and Medical Affairs, Inc.",New York,11042.0,Queens,Hospital,HOSP,,1630,1901-01-01T00:00:00.000,7184707764.0,11040,"{'type': 'Point', 'coordinates': [-73.706848, 40.753349]}",Long Island Jewish Medical Center,40.753349,-73.706848,,,7003004H,270-05 76 Avenue,,New Hyde Park,Long Island Jewish Medical Center,New York,11040,Not for Profit Corporation,Metropolitan Area Regional Office - New York City,5,New York
73,30 Seventh Avenue,New York,7093,2000 Marcus Ave.,,New Hyde Park,"Northwell Quality and Medical Affairs, Inc.",New York,11042.0,New York,Hospital,HOSP,,9700,2014-07-17T00:00:00.000,5164658018.0,10011,"{'type': 'Point', 'coordinates': [-74.000488, 40.737576]}",Lenox Health Greenwich Village,40.737576,-74.000488,1450.0,Lenox Hill Hospital,7002017H,100 East 77 Street,,New York,Lenox Hill Hospital,New York,10021,Not for Profit Corporation,Metropolitan Area Regional Office - New York City,5,New York
74,300 Community Drive,Manhasset,29,2000 Marcus Ave.,,New Hyde Park,"Northwell Quality and Medical Affairs, Inc.",New York,11042.0,Nassau,Hospital,HOSP,,541,1901-01-01T00:00:00.000,5165620100.0,11030,"{'type': 'Point', 'coordinates': [-73.702888, 40.77924]}",North Shore University Hospital,40.77924,-73.702888,,,2951001H,300 Community Drive,,Manhasset,North Shore University Hospital Inc,New York,11030,Not for Profit Corporation,Metropolitan Area Regional Office - Long Island,7,New York
75,301 East Main St,Bay Shore,51,2000 Marcus Ave.,,New Hyde Park,"Northwell Quality and Medical Affairs, Inc.",New York,11042.0,Suffolk,Hospital,HOSP,,924,1901-01-01T00:00:00.000,6319683000.0,11706,"{'type': 'Point', 'coordinates': [-73.240372, 40.725014]}",Southside Hospital,40.725014,-73.240372,,,5154000H,Montauk Highway,,Bayshore,Southside Hospital Inc,New York,11706,Not for Profit Corporation,Metropolitan Area Regional Office - Long Island,7,New York
76,375 Seguine Avenue,Staten Island,7097,2000 Marcus Ave.,,New Hyde Park,"Northwell Quality and Medical Affairs, Inc.",New York,11042.0,Richmond,Hospital,HOSP,,1737,1979-08-01T00:00:00.000,7182269515.0,10309,"{'type': 'Point', 'coordinates': [-74.196808, 40.516773]}",Staten Island University Hosp-South,40.516773,-74.196808,1740.0,Staten Island University Hosp-North,7004003H,256 Mason Avenue,,Staten Island,Staten Island University Hospital,New York,10305,Not for Profit Corporation,Metropolitan Area Regional Office - New York City,5,New York
77,221 Jericho Turnpike,Syosset,29,2000 Marcus Ave.,,New Hyde Park,"Northwell Quality and Medical Affairs, Inc.",New York,11042.0,Nassau,Hospital,HOSP,,550,1984-11-18T00:00:00.000,5164966400.0,11791,"{'type': 'Point', 'coordinates': [-73.508614, 40.810238]}",Syosset Hospital,40.810238,-73.508614,541.0,North Shore University Hospital,2951001H,300 Community Drive,,Manhasset,North Shore University Hospital Inc,New York,11030,Not for Profit Corporation,Metropolitan Area Regional Office - Long Island,7,New York
78,100 East 77th Street,New York,7093,2000 Marcus Ave.,,New Hyde Park,"Northwell Quality and Medical Affairs, Inc.",New York,11042.0,New York,Hospital,HOSP,,1450,1901-01-01T00:00:00.000,2124342060.0,10021,"{'type': 'Point', 'coordinates': [-73.960632, 40.773907]}",Lenox Hill Hospital,40.773907,-73.960632,,,7002017H,100 East 77 Street,,New York,Lenox Hill Hospital,New York,10021,Not for Profit Corporation,Metropolitan Area Regional Office - New York City,5,New York
79,101 St Andrews Lane,Glen Cove,29,2000 Marcus Ave.,,New Hyde Park,"Northwell Quality and Medical Affairs, Inc.",New York,11042.0,Nassau,Hospital,HOSP,,490,1901-01-01T00:00:00.000,5166747588.0,11542,"{'type': 'Point', 'coordinates': [-73.62159, 40.871731]}",Glen Cove Hospital,40.871731,-73.62159,,,2901000H,St Andrews Lane,,Glen Cove,Glen Cove Hospital,New York,11542,Not for Profit Corporation,Metropolitan Area Regional Office - Long Island,7,New York
80,400 East Main Street,Mount Kisco,59,2000 Marcus Ave.,,New Hyde Park,"Northwell Healthcare, Inc.",New York,11042.0,Westchester,Hospital,HOSP,,1117,1901-01-01T00:00:00.000,9146661303.0,10549,"{'type': 'Point', 'coordinates': [-73.72451, 41.196774]}",Northern Westchester Hospital,41.196774,-73.72451,,,5920000H,400 East Main St,,Mt Kisco,Northern Westchester Hosp Assoc Inc,New York,10549,Not for Profit Corporation,Metropolitan Area Regional Office - New Rochelle,6,New York
81,888 Old Country Road,Plainview,29,2000 Marcus Ave.,,New Hyde Park,"Northwell Quality and Medical Affairs, Inc.",New York,11042.0,Nassau,Hospital,HOSP,,552,1979-02-01T00:00:00.000,5167193000.0,11803,"{'type': 'Point', 'coordinates': [-73.478264, 40.774471]}",Plainview Hospital,40.774471,-73.478264,,,2952005H,888 Old County Road,,Plainview,Plainview Hospital,New York,11803,Not for Profit Corporation,Metropolitan Area Regional Office - Long Island,7,New York
82,900 Franklin Avenue,Valley Stream,29,2000 Marcus Ave.,,New Hyde Park,"Northwell Quality and Medical Affairs, Inc.",New York,11042.0,Nassau,Hospital,HOSP,,518,1901-01-01T00:00:00.000,5162566000.0,11580,"{'type': 'Point', 'coordinates': [-73.685814, 40.681789]}",Long Island Jewish Valley Stream,40.681789,-73.685814,1630.0,Long Island Jewish Medical Center,7003004H,270-05 76 Avenue,,New Hyde Park,Long Island Jewish Medical Center,New York,11040,Not for Profit Corporation,Metropolitan Area Regional Office - Long Island,7,New York
83,475 Seaview Avenue,Staten Island,7097,2000 Marcus Ave.,,New Hyde Park,"Northwell Quality and Medical Affairs, Inc.",New York,11042.0,Richmond,Hospital,HOSP,,1740,1901-01-01T00:00:00.000,7182269515.0,10305,"{'type': 'Point', 'coordinates': [-74.086998, 40.584141]}",Staten Island University Hosp-North,40.584141,-74.086998,,,7004003H,256 Mason Avenue,,Staten Island,Staten Island University Hospital,New York,10305,Not for Profit Corporation,Metropolitan Area Regional Office - New York City,5,New York
84,51 N Route 9W,West Haverstraw,43,,,,,New York,,Rockland,Hospital,HOSP,,775,1901-01-01T00:00:00.000,8457864000.0,10993,"{'type': 'Point', 'coordinates': [-73.986, 41.213886]}",Helen Hayes Hospital,41.213886,-73.986,,,4322000H,Empire State Plaza,Corning Tower  Room 1683,Albany,New York State Department of Health,New York,12237,State,Metropolitan Area Regional Office - New Rochelle,6,New York
85,396 Broadway,Kingston,55,"100 Woods Road, Taylor Pavilion 2nd Floor",,Valhalla,Westchester County Health Care Corporation,New York,10595.0,Ulster,Hospital,HOSP,8453313238.0,990,1901-01-01T00:00:00.000,8453342750.0,12401,"{'type': 'Point', 'coordinates': [-73.995453, 41.92643]}",HealthAlliance Hospital Broadway Campus,41.92643,-73.995453,,,5501001H,396 Broadway,,Kingston,HealthAlliance Hospital Broadway Campus,New York,12401,Not for Profit Corporation,Metropolitan Area Regional Office - New Rochelle,6,New York
86,1000 Montauk Highway,West Islip,51,1 Huntington Quadrangle,,Melville,"Catholic Health System of Long Island, Inc.",New York,11747.0,Suffolk,Hospital,HOSP,,925,1979-02-01T00:00:00.000,6313763000.0,11795,"{'type': 'Point', 'coordinates': [-73.286324, 40.696751]}",Good Samaritan Hospital Medical Center,40.696751,-73.286324,,,5154001H,1000 Montauk Highway,,West Islip,Good Samaritan Hospital Medical Center,New York,11795,Not for Profit Corporation,Metropolitan Area Regional Office - Long Island,7,New York
87,701 North Broadway,Sleepy Hollow,59,2000 Marcus Ave.,,New Hyde Park,"Northwell Healthcare, Inc.",New York,11042.0,Westchester,Hospital,HOSP,,1129,1901-01-01T00:00:00.000,9143663000.0,10591,"{'type': 'Point', 'coordinates': [-73.859665, 41.107639]}",Phelps Hospital,41.107639,-73.859665,,,5932000H,701 N Broadway,,North Tarrytown,Phelps Memorial Hospital Association,New York,10591,Not for Profit Corporation,Metropolitan Area Regional Office - New Rochelle,6,New York
88,105 Marys Avenue,Kingston,55,"100 Woods Road, Taylor Pavilion 2nd Floor",,Valhalla,Westchester County Health Care Corporation,New York,10595.0,Ulster,Hospital,HOSP,,989,1901-01-01T00:00:00.000,8453382500.0,12401,"{'type': 'Point', 'coordinates': [-73.999237, 41.922276]}",HealthAlliance Hospital Mary's Avenue Campus,41.922276,-73.999237,,,5501000H,105 Mary's Avenue,,Kingston,HealthAlliance Hospital Mary's Avenue Campus,New York,12401,Not for Profit Corporation,Metropolitan Area Regional Office - New Rochelle,6,New York
89,1545 Atlantic Avenue,Brooklyn,7095,1 Brookdale Plaza,Care of Alex Rovt Chairman of the Board,Brooklyn,"One Brooklyn Health System, Inc.",New York,11212.0,Kings,Hospital,HOSP,,1309,1980-04-24T00:00:00.000,7189357000.0,11213,"{'type': 'Point', 'coordinates': [-73.937515, 40.67794]}",Interfaith Medical Center,40.67794,-73.937515,,,7001046H,555 Prospect Place,,Brooklyn,Interfaith Medical Center,New York,11238,Not for Profit Corporation,Metropolitan Area Regional Office - New York City,5,New York
90,134 Homer Avenue,Cortland,11,1 Guthrie Square,,Sayre,The Guthrie Clinic,New York,18840.0,Cortland,Hospital,HOSP,,158,1901-01-01T00:00:00.000,6077567525.0,13045,"{'type': 'Point', 'coordinates': [-76.186195, 42.609051]}",Guthrie Cortland Medical Center,42.609051,-76.186195,,,1101000H,134 Homer Avenue,,Cortland,Guthrie Cortland Medical Center,New York,13045,Not for Profit Corporation,Central New York Regional Office,3,New York
91,2605 Harlem Road,Cheektowaga,14,144 Genesee Street,,Buffalo,"Catholic Health System, Inc.",New York,14203.0,Erie,Hospital,HOSP,,292,1901-01-01T00:00:00.000,7168912400.0,14225,"{'type': 'Point', 'coordinates': [-78.784241, 42.914642]}",Sisters of Charity Hospital - St Joseph Campus,42.914642,-78.784241,218.0,Sisters of Charity Hospital,1401013H,2157 Main Street,,Buffalo,Sisters of Charity Hospital of Buffalo New York Inc,New York,14214,Not for Profit Corporation,Western Regional Office - Buffalo,1,New York
92,2950 Elmwood Avenue,Kenmore,14,144 Genesee Street,,Buffalo,"Catholic Health System, Inc.",New York,14203.0,Erie,Hospital,HOSP,,267,1901-01-01T00:00:00.000,7164476100.0,14217,"{'type': 'Point', 'coordinates': [-78.878754, 42.977848]}",Kenmore Mercy Hospital,42.977848,-78.878754,,,1404000H,2950 Elmwood Avenue,,Kenmore,Kenmore Mercy Hospital,New York,14217,Not for Profit Corporation,Western Regional Office - Buffalo,1,New York
93,565 Abbott Road,Buffalo,14,144 Genesee Street,,Buffalo,"Catholic Health System, Inc.",New York,14203.0,Erie,Hospital,HOSP,,213,1901-01-01T00:00:00.000,7168267000.0,14220,"{'type': 'Point', 'coordinates': [-78.812859, 42.84853]}",Mercy Hospital of Buffalo,42.84853,-78.812859,,,1401008H,565 Abbott Road,,Buffalo,Mercy Hospital of Buffalo Inc,New York,14220,Not for Profit Corporation,Western Regional Office - Buffalo,1,New York
94,3669 Southwestern Blvd,Orchard Park,14,144 Genesee Street,,Buffalo,"Catholic Health System, Inc.",New York,14203.0,Erie,Hospital,HOSP,,1723,2007-02-02T00:00:00.000,7166620500.0,14127,"{'type': 'Point', 'coordinates': [-78.77224, 42.781742]}",Mercy Hospital - Mercy Hospital Orchard Park Division,42.781742,-78.77224,213.0,Mercy Hospital of Buffalo,1401008H,565 Abbott Road,,Buffalo,Mercy Hospital of Buffalo Inc,New York,14220,Not for Profit Corporation,Western Regional Office - Buffalo,1,New York
95,2157 Main Street,Buffalo,14,144 Genesee Street,,Buffalo,"Catholic Health System, Inc.",New York,14203.0,Erie,Hospital,HOSP,,218,1901-01-01T00:00:00.000,7168621000.0,14214,"{'type': 'Point', 'coordinates': [-78.849953, 42.92905]}",Sisters of Charity Hospital,42.92905,-78.849953,,,1401013H,2157 Main Street,,Buffalo,Sisters of Charity Hospital of Buffalo New York Inc,New York,14214,Not for Profit Corporation,Western Regional Office - Buffalo,1,New York
96,5300 Military Road,Lewiston,31,144 Genesee Street,,Buffalo,"Catholic Health System, Inc.",New York,14203.0,Niagara,Hospital,HOSP,,583,1979-02-01T00:00:00.000,7162974800.0,14092,"{'type': 'Point', 'coordinates': [-79.030556, 43.154659]}",Mount St Marys Hospital and Health Center,43.154659,-79.030556,,,3121001H,5300 Military Road,,Lewiston,Mount St Marys Hospital of Niagara Falls,New York,14092,Not for Profit Corporation,Western Regional Office - Buffalo,1,New York
97,45 Reade Place,Poughkeepsie,13,"1351 Route 55, Suite 200",,LaGrangeville,"HQ-WCHN Health System, Inc.",New York,12540.0,Dutchess,Hospital,HOSP,,181,1901-01-01T00:00:00.000,8454548500.0,12601,"{'type': 'Point', 'coordinates': [-73.935799, 41.694523]}",Vassar Brothers Medical Center,41.694523,-73.935799,,,1302001H,45 Reade Place,,Poughkeepsie,"Health Quest Systems, Inc.",New York,12601,Not for Profit Corporation,Metropolitan Area Regional Office - New Rochelle,6,New York
98,6511 Springbrook Avenue,Rhinebeck,13,"1351 Route 55, Suite 200",,LaGrangeville,"HQ-WCHN Health System, Inc.",New York,12540.0,Dutchess,Hospital,HOSP,,192,1901-01-01T00:00:00.000,8458713001.0,12572,"{'type': 'Point', 'coordinates': [-73.912331, 41.934223]}",Northern Dutchess Hospital,41.934223,-73.912331,,,1327000H,Springbrook Avenue,,Rhinebeck,Northern Dutchess Hospital Inc,New York,12572,Not for Profit Corporation,Metropolitan Area Regional Office - New Rochelle,6,New York
99,670 Stoneleigh Avenue,Carmel,39,"1351 Route 55, Suite 200",,LaGrangeville,"HQ-WCHN Health System, Inc.",New York,12540.0,Putnam,Hospital,HOSP,,752,1901-01-01T00:00:00.000,8452795711.0,10512,"{'type': 'Point', 'coordinates': [-73.664413, 41.384766]}",Putnam Hospital Center,41.384766,-73.664413,,,3950000H,Stoneleigh Avenue,,Carmel,"Health Quest Systems, Inc.",New York,10512,Not for Profit Corporation,Metropolitan Area Regional Office - New Rochelle,6,New York
100,555 St. Joseph's Boulevard,Elmira,7,600 Roe Avenue,,Elmira,Arnot Health Inc.,New York,14905.0,Chemung,Hospital,HOSP,,118,1901-01-01T00:00:00.000,6077336541.0,14901,"{'type': 'Point', 'coordinates': [-76.79686, 42.091446]}",St. Joseph's Hospital,42.091446,-76.79686,116.0,Arnot Ogden Medical Center,0701000H,600 Roe Avenue,,Elmira,Arnot Ogden Medical Center,New York,14901,Not for Profit Corporation,Western Regional Office - Rochester,2,New York
101,150 55th Street,Brooklyn,7095,,,,,New York,,Kings,Hospital,HOSP,,10223,2001-10-16T00:00:00.000,,11220,"{'type': 'Point', 'coordinates': [-74.021033, 40.646444]}",Calvary Hospital,40.646444,-74.021033,1175.0,Calvary Hospital Inc,7000011H,1740-70 Eastchester Road,,Bronx,Calvary Hospital Inc.,New York,10461,Not for Profit Corporation,Metropolitan Area Regional Office - New York City,5,New York
102,70 Dubois Street,Newburgh,35,111 East 210th Street,,Bronx,"Montefiore Health System, Inc",New York,10467.0,Orange,Hospital,HOSP,,694,1979-02-01T00:00:00.000,8455614400.0,12550,"{'type': 'Point', 'coordinates': [-74.015129, 41.503017]}",St Luke's Cornwall Hospital/Newburgh,41.503017,-74.015129,,,3522000H,19 Laurel Avenue,,Cornwall,St Luke's Cornwall Hospital,New York,12518,Not for Profit Corporation,Metropolitan Area Regional Office - New Rochelle,6,New York
103,203 Old Military Road,Lake Placid,15,,,,,New York,,Essex,Hospital,HOSP,,306,1991-01-01T00:00:00.000,5185233311.0,12946,"{'type': 'Point', 'coordinates': [-73.98455, 44.266376]}",Adirondack Medical Center-Lake Placid Site,44.266376,-73.98455,324.0,Adirondack Medical Center-Saranac Lake Site,1623001H,Lake Colby Drive,,Saranac Lake,Adirondack Medical Center,New York,12983,Not for Profit Corporation,Capital District Regional Office,4,New York
104,521 East Avenue,Lockport,31,,,,,New York,,Niagara,Hospital,HOSP,,565,1901-01-01T00:00:00.000,7165145700.0,14094,"{'type': 'Point', 'coordinates': [-78.670998, 43.176472]}",Eastern Niagara Hospital - Lockport Division,43.176472,-78.670998,,,3101000H,521 East Avenue,,Lockport,Eastern Niagara Hospital,New York,14094,Not for Profit Corporation,Western Regional Office - Buffalo,1,New York
105,1980 Crompond Road,Cortlandt Manor,59,525 East 68th Street Box 88,,New York,"NYP Community Programs, Inc.",New York,10065.0,Westchester,Hospital,HOSP,,1039,1901-01-01T00:00:00.000,9147379000.0,10567,"{'type': 'Point', 'coordinates': [-73.893341, 41.291512]}",NewYork-Presbyterian/Hudson Valley Hospital,41.291512,-73.893341,,,5901000H,1980 Crompond Road,,Peekskill,Hudson Valley Hospital Center,New York,10566,Not for Profit Corporation,Metropolitan Area Regional Office - New Rochelle,6,New York
106,16 Bank Street,Batavia,18,89 Genesee Street,,Rochester,Rochester Regional Health,New York,14611.0,Genesee,Hospital,HOSP,,340,2000-01-01T00:00:00.000,5853436030.0,14020,"{'type': 'Point', 'coordinates': [-78.181587, 42.998436]}",United Memorial Medical Center Bank Street Campus,42.998436,-78.181587,339.0,United Memorial Medical Center North Street Campus,1801000H,127 North St,,Batavia,United Memorial Medical Center,New York,14020,Not for Profit Corporation,Western Regional Office - Buffalo,1,New York
107,"2233 State Rt 86, P.O. Box 471",Saranac Lake,16,,,,,New York,,Franklin,Hospital,HOSP,,324,1991-01-01T00:00:00.000,5188914141.0,12983,"{'type': 'Point', 'coordinates': [-74.144363, 44.343929]}",Adirondack Medical Center-Saranac Lake Site,44.343929,-74.144363,,,1623001H,Lake Colby Drive,,Saranac Lake,Adirondack Medical Center,New York,12983,Not for Profit Corporation,Capital District Regional Office,4,New York
108,4802 Tenth Avenue,Brooklyn,7095,,,,,New York,,Kings,Hospital,HOSP,,1305,1901-01-01T00:00:00.000,7182836000.0,11219,"{'type': 'Point', 'coordinates': [-73.99839, 40.639423]}",Maimonides Medical Center,40.639423,-73.99839,,,7001020H,4802 Tenth Ave,,Brooklyn,Maimonides Medical Center,New York,11219,Not for Profit Corporation,Metropolitan Area Regional Office - New York City,5,New York
109,Health Sciences Center Suny,Stony Brook,51,,,,,New York,,Suffolk,Hospital,HOSP,,245,1980-01-21T00:00:00.000,6314442701.0,11794,"{'type': 'Point', 'coordinates': [-73.115198, 40.909217]}",University Hospital,40.909217,-73.115198,,,5151001H,178-50 Linden Blvd,,Jamaica,State University of New York,New York,11434,State,Metropolitan Area Regional Office - Long Island,7,New York
110,55 Palmer Avenue,Bronxville,59,,,,,New York,,Westchester,Hospital,HOSP,,1122,1901-01-01T00:00:00.000,9147871000.0,10708,"{'type': 'Point', 'coordinates': [-73.836334, 40.941673]}",NewYork-Presbyterian Hospital,40.941673,-73.836334,1458.0,New York Presbyterian Hospital - New York Weill Cornell Center,7002054H,622 West 168th Street,,New York,The New York and Presbyterian Hospital,New York,10032,Not for Profit Corporation,Metropolitan Area Regional Office - New Rochelle,6,New York
111,760 Broadway,Brooklyn,7095,,,,,New York,,Kings,Hospital,HOSP,,1692,1982-05-24T00:00:00.000,7189638101.0,11206,"{'type': 'Point', 'coordinates': [-73.941711, 40.700535]}",Woodhull Medical & Mental Health Center,40.700535,-73.941711,,,7001045H,125 Worth Street,,New York,New York City Health and Hospital Corporation,New York,10013,Municipality,Metropolitan Area Regional Office - New York City,5,New York
112,301 East Main St,Bay Shore,51,2000 Marcus Ave.,,New Hyde Park,"Northwell Healthcare, Inc.",New York,11042.0,Suffolk,Hospital,HOSP,,924,1901-01-01T00:00:00.000,6319683000.0,11706,"{'type': 'Point', 'coordinates': [-73.240372, 40.725014]}",Southside Hospital,40.725014,-73.240372,,,5154000H,Montauk Highway,,Bayshore,Southside Hospital Inc,New York,11706,Not for Profit Corporation,Metropolitan Area Regional Office - Long Island,7,New York
113,1400 Pelham Parkway,Bronx,7094,,,,,New York,,Bronx,Hospital,HOSP,,1165,1901-01-01T00:00:00.000,7189185000.0,10461,"{'type': 'Point', 'coordinates': [-73.846741, 40.857388]}",Jacobi Medical Center,40.857388,-73.846741,,,7000002H,125 Worth Street,,New York,New York City Health and Hospital Corporation,New York,10013,Municipality,Metropolitan Area Regional Office - New York City,5,New York
114,"1200 Driving Park Avenue, Box 111",Newark,58,89 Genesee Street,,Rochester,Rochester Regional Health,New York,14611.0,Wayne,Hospital,HOSP,,1028,1901-01-01T00:00:00.000,3153322022.0,14513,"{'type': 'Point', 'coordinates': [-77.102244, 43.059728]}",Newark-Wayne Community Hospital,43.059728,-77.102244,,,5820000H,Driving Park Avenue    Box 111,,Newark,Newark-Wayne Community Hospital,New York,14513,Not for Profit Corporation,Western Regional Office - Rochester,2,New York
115,56-45 Main Street,Flushing,7096,525 East 68th Street Box 88,,New York,"NYP Community Programs, Inc.",New York,10065.0,Queens,Hospital,HOSP,,1637,1901-01-01T00:00:00.000,7186701021.0,11355,"{'type': 'Point', 'coordinates': [-73.826035, 40.747517]}",NewYork-Presbyterian/Queens,40.747517,-73.826035,,,7003010H,56-36 Main Street,,Flushing,NewYork-Presbyterian/Queens,New York,11355,Not for Profit Corporation,Metropolitan Area Regional Office - New York City,5,New York
116,111 Clara Barton Street,Dansville,25,,,,,New York,,Livingston,Hospital,HOSP,,393,1901-01-01T00:00:00.000,5853356001.0,14437,"{'type': 'Point', 'coordinates': [-77.700195, 42.551964]}",Nicholas H Noyes Memorial Hospital,42.551964,-77.700195,,,2527000H,111 Clara Barton Street,,Dansville,Nicholas H Noyes Memorial Hospital,New York,11437,Not for Profit Corporation,Western Regional Office - Rochester,2,New York
117,82-68 164th Street,Jamaica,7096,,,,,New York,,Queens,Hospital,HOSP,,1633,1901-01-01T00:00:00.000,7188832350.0,11432,"{'type': 'Point', 'coordinates': [-73.803581, 40.71722]}",Queens Hospital Center,40.71722,-73.803581,,,7003007H,125 Worth Street,,New York,New York City Health and Hospital Corporation,New York,10013,Municipality,Metropolitan Area Regional Office - New York City,5,New York
118,75 Vanderbilt Avenue,Staten Island,7097,355 Bard Avenue,,Staten Island,Bridge Regional Health System,New York,10310.0,Richmond,Hospital,HOSP,,1473,1981-11-20T00:00:00.000,7183906000.0,10304,"{'type': 'Point', 'coordinates': [-74.07476, 40.621376]}",RUMC-Bayley Seton,40.621376,-74.07476,1738.0,Richmond University Medical Center,7004010H,355 Bard Avenue,,Staten Island,Richmond University Medical Center,New York,10310,Not for Profit Corporation,Metropolitan Area Regional Office - New York City,5,New York
119,375 Seguine Avenue,Staten Island,7097,2000 Marcus Ave.,,New Hyde Park,"Northwell Healthcare, Inc.",New York,11042.0,Richmond,Hospital,HOSP,,1737,1979-08-01T00:00:00.000,7182269515.0,10309,"{'type': 'Point', 'coordinates': [-74.196808, 40.516773]}",Staten Island University Hosp-South,40.516773,-74.196808,1740.0,Staten Island University Hosp-North,7004003H,256 Mason Avenue,,Staten Island,Staten Island University Hospital,New York,10305,Not for Profit Corporation,Metropolitan Area Regional Office - New York City,5,New York
120,128 Ashford Avenue,Dobbs Ferry,59,967 North Broadway,,Yonkers,"Riverside Health Care System, Inc.",New York,10701.0,Westchester,Hospital,HOSP,,1124,1901-01-01T00:00:00.000,9146930700.0,10522,"{'type': 'Point', 'coordinates': [-73.862259, 41.014721]}",SJRH - Dobbs Ferry Pavillion,41.014721,-73.862259,1097.0,SJRH - St Johns Division,5907001H,967 North Broadway,,Yonkers,St Johns Riverside Hospital Inc,New York,10701,Not for Profit Corporation,Metropolitan Area Regional Office - New Rochelle,6,New York
121,445 Lenox Road,Brooklyn,7095,,,,,New York,,Kings,Hospital,HOSP,,1320,1901-01-01T00:00:00.000,7182702401.0,11203,"{'type': 'Point', 'coordinates': [-73.945045, 40.654518]}",University Hospital of Brooklyn,40.654518,-73.945045,,,7001037H,178-50 Linden Blvd,,Jamaica,State of New York,New York,11434,State,Metropolitan Area Regional Office - New York City,5,New York
122,17 Lansing Street,Auburn,5,,,,,New York,,Cayuga,Hospital,HOSP,,85,1901-01-01T00:00:00.000,3152557209.0,13021,"{'type': 'Point', 'coordinates': [-76.564758, 42.940811]}",Auburn Community Hospital,42.940811,-76.564758,,,0501000H,Lansing Street,,Auburn,Auburn Community Hospital,New York,13021,Not for Profit Corporation,Central New York Regional Office,3,New York
123,105 Marys Avenue,Kingston,55,741 Grant Street,,Lake Katrine,"Health Alliance, Inc",New York,12449.0,Ulster,Hospital,HOSP,,989,1901-01-01T00:00:00.000,8453382500.0,12401,"{'type': 'Point', 'coordinates': [-73.999237, 41.922276]}",HealthAlliance Hospital Mary's Avenue Campus,41.922276,-73.999237,,,5501000H,105 Mary's Avenue,,Kingston,HealthAlliance Hospital Mary's Avenue Campus,New York,12401,Not for Profit Corporation,Metropolitan Area Regional Office - New Rochelle,6,New York
124,214 King Street,Ogdensburg,44,,,,,New York,,Saint Lawrence,Hospital,HOSP,,798,1901-01-01T00:00:00.000,3153933600.0,13669,"{'type': 'Point', 'coordinates': [-75.499908, 44.692039]}",Claxton-Hepburn Medical Center,44.692039,-75.499908,,,4401000H,214 King Street,,Ogdensburg,Claxton-Hepburn Medical Center,New York,13669,Not for Profit Corporation,Central New York Regional Office,3,New York
125,4422 Third Avenue,Bronx,7094,,,,,New York,,Bronx,Hospital,HOSP,,1176,1901-01-01T00:00:00.000,7189606100.0,10457,"{'type': 'Point', 'coordinates': [-73.891014, 40.853909]}",SBH Health System,40.853909,-73.891014,,,7000014H,4422 Third Avenue,,Bronx,St Barnabas Hospital Inc,New York,10457,Not for Profit Corporation,Metropolitan Area Regional Office - New York City,5,New York
126,818 Ellicott Street,Buffalo,14,,,,,New York,,Erie,Hospital,HOSP,,208,1978-02-01T00:00:00.000,7168787000.0,14203,"{'type': 'Point', 'coordinates': [-78.867203, 42.900716]}",John R. Oishei Children's Hospital,42.900716,-78.867203,207.0,Buffalo General Medical Center,1401014H,100 High Street,,Buffalo,Kaleida Health,New York,14203,Not for Profit Corporation,Western Regional Office - Buffalo,1,New York
127,100 High Street,Buffalo,14,,,,,New York,,Erie,Hospital,HOSP,,207,1980-02-01T00:00:00.000,7168595600.0,14203,"{'type': 'Point', 'coordinates': [-78.865707, 42.900394]}",Buffalo General Medical Center,42.900394,-78.865707,,,1401014H,100 High Street,,Buffalo,Kaleida Health,New York,14203,Not for Profit Corporation,Western Regional Office - Buffalo,1,New York
128,506 Sixth Street,Brooklyn,7095,525 East 68th Street Box 88,,New York,"NYP Community Programs, Inc.",New York,10065.0,Kings,Hospital,HOSP,,1306,1901-01-01T00:00:00.000,7187803101.0,11215,"{'type': 'Point', 'coordinates': [-73.978905, 40.668087]}",NewYork-Presbyterian Brooklyn Methodist Hospital,40.668087,-73.978905,,,7001021H,506 Sixth St.,,Brooklyn,NewYork-Presbyterian/Brooklyn Methodist,New York,11215,Not for Profit Corporation,Metropolitan Area Regional Office - New York City,5,New York
129,95 Bradhurst Avenue,Valhalla,59,,,,,New York,,Westchester,Hospital,HOSP,,1138,1901-01-01T00:00:00.000,9145927555.0,10595,"{'type': 'Point', 'coordinates': [-73.798767, 41.076408]}",Blythedale Childrens Hospital,41.076408,-73.798767,,,5957000H,Bradhurst Avenue,,Valhalla,Blythedale Childrens Hospital Inc,New York,10595,Not for Profit Corporation,Metropolitan Area Regional Office - New Rochelle,6,New York
130,1901 First Avenue,New York,7093,,,,,New York,,New York,Hospital,HOSP,2124238535.0,1454,1901-01-01T00:00:00.000,2124238993.0,10029,"{'type': 'Point', 'coordinates': [-73.94368, 40.784775]}",Metropolitan Hospital Center,40.784775,-73.94368,,,7002021H,125 Worth Street,,New York,New York City Health and Hospital Corporation,New York,10013,Municipality,Metropolitan Area Regional Office - New York City,5,New York
131,475 Seaview Avenue,Staten Island,7097,2000 Marcus Ave.,,New Hyde Park,"Northwell Healthcare, Inc.",New York,11042.0,Richmond,Hospital,HOSP,,1740,1901-01-01T00:00:00.000,7182269515.0,10305,"{'type': 'Point', 'coordinates': [-74.086998, 40.584141]}",Staten Island University Hosp-North,40.584141,-74.086998,,,7004003H,256 Mason Avenue,,Staten Island,Staten Island University Hospital,New York,10305,Not for Profit Corporation,Metropolitan Area Regional Office - New York City,5,New York
132,P.O. Box 800 68 Harris-Bushville Rd,Harris,52,4 Harriman Drive,,Goshen,"Greater Hudson Valley Health System, Inc.",New York,10924.0,Sullivan,Hospital,HOSP,8457943240.0,971,1901-01-01T00:00:00.000,8457943300.0,12742,"{'type': 'Point', 'coordinates': [-74.727798, 41.717999]}",Catskill Regional Medical Center,41.717999,-74.727798,,,5263000H,Route 97,,Callicoon,Catskill Regional Medical Center Inc,New York,12723,Not for Profit Corporation,Metropolitan Area Regional Office - New Rochelle,6,New York
133,4900 Broad Road,Syracuse,33,,,,,New York,,Onondaga,Hospital,HOSP,3154915414.0,628,1901-01-01T00:00:00.000,3154925953.0,13215,"{'type': 'Point', 'coordinates': [-76.17025, 43.007816]}",UPSTATE University Hospital at Community General,43.007816,-76.17025,635.0,University Hospital SUNY Health Science Center,3301007H,178-50 Linden Blvd,,Jamaica,State University of New York,New York,11434,State,Central New York Regional Office,3,New York
134,179 North Broad St,Norwich,8,,,,,New York,,Chenango,Hospital,HOSP,,128,1901-01-01T00:00:00.000,6073374111.0,13815,"{'type': 'Point', 'coordinates': [-75.524773, 42.541813]}",Chenango Memorial Hospital Inc,42.541813,-75.524773,,,0824000H,179 North Broad Street,,Norwich,Chenango Memorial Hospital Inc,New York,13815,Not for Profit Corporation,Central New York Regional Office,3,New York
135,100 East 77th Street,New York,7093,2000 Marcus Ave.,,New Hyde Park,"Northwell Healthcare, Inc.",New York,11042.0,New York,Hospital,HOSP,,1450,1901-01-01T00:00:00.000,2124342060.0,10021,"{'type': 'Point', 'coordinates': [-73.960632, 40.773907]}",Lenox Hill Hospital,40.773907,-73.960632,,,7002017H,100 East 77 Street,,New York,Lenox Hill Hospital,New York,10021,Not for Profit Corporation,Metropolitan Area Regional Office - New York City,5,New York
136,6511 Springbrook Avenue,Rhinebeck,13,Stoneleigh Avenue,,Carmel,"Health Quest Systems, Inc.",New York,10512.0,Dutchess,Hospital,HOSP,,192,1901-01-01T00:00:00.000,8458713001.0,12572,"{'type': 'Point', 'coordinates': [-73.912331, 41.934223]}",Northern Dutchess Hospital,41.934223,-73.912331,,,1327000H,Springbrook Avenue,,Rhinebeck,Northern Dutchess Hospital Inc,New York,12572,Not for Profit Corporation,Metropolitan Area Regional Office - New Rochelle,6,New York
137,200 Belle Terre Road,Port Jefferson,51,200 Bell Terre Road,,Port Jefferson,St Charles Hosp and Rehab Ctr Inc,New York,11777.0,Suffolk,Hospital,HOSP,,896,1901-01-01T00:00:00.000,6314746600.0,11777,"{'type': 'Point', 'coordinates': [-73.060081, 40.947533]}",St Charles Hospital,40.947533,-73.060081,,,5149001H,1 Huntington Quadrangle,,Melville,"Catholic Health System of Long Island, Inc.",New York,11747,Not for Profit Corporation,Metropolitan Area Regional Office - Long Island,7,New York
138,30 Seventh Avenue,New York,7093,2000 Marcus Ave.,,New Hyde Park,"Northwell Healthcare, Inc.",New York,11042.0,New York,Hospital,HOSP,,9700,2014-07-17T00:00:00.000,5164658018.0,10011,"{'type': 'Point', 'coordinates': [-74.000488, 40.737576]}",Lenox Health Greenwich Village,40.737576,-74.000488,1450.0,Lenox Hill Hospital,7002017H,100 East 77 Street,,New York,Lenox Hill Hospital,New York,10021,Not for Profit Corporation,Metropolitan Area Regional Office - New York City,5,New York
139,427 Guy Park Avenue,Amsterdam,28,,,,,New York,,Montgomery,Hospital,HOSP,,484,1901-01-01T00:00:00.000,5188421900.0,12010,"{'type': 'Point', 'coordinates': [-74.216194, 42.953758]}",St. Mary's Healthcare,42.953758,-74.216194,,,2801001H,427 Guy Park Ave,,Amsterdam,St. Mary's Healthcare,New York,12010,Not for Profit Corporation,Capital District Regional Office,4,New York
140,736 Irving Avenue,Syracuse,33,736 Irving Avenue,,Syracuse,"Crouse Health System, Inc.",New York,13210.0,Onondaga,Hospital,HOSP,,636,1901-01-01T00:00:00.000,3154707111.0,13210,"{'type': 'Point', 'coordinates': [-76.137932, 43.041107]}",Crouse Hospital,43.041107,-76.137932,,,3301008H,736 Irving Avenue,,Syracuse,Crouse Health Hospital Inc,New York,13210,Not for Profit Corporation,Central New York Regional Office,3,New York
141,585 Schenectady Avenue,Brooklyn,7095,1 Brookdale Plaza,Care of Alex Rovt Chairman of the Board,Brooklyn,"One Brooklyn Health System, Inc.",New York,11212.0,Kings,Hospital,HOSP,,1315,1901-01-01T00:00:00.000,7186045000.0,11203,"{'type': 'Point', 'coordinates': [-73.934036, 40.659435]}",Kingsbrook Jewish Medical Center,40.659435,-73.934036,,,7001033H,585 Schenectady Avenue,,Brooklyn,Kingsbrook Jewish Medical Center,New York,11203,Not for Profit Corporation,Metropolitan Area Regional Office - New York City,5,New York
142,506 Lenox Avenue,New York,7093,,,,,New York,,New York,Hospital,HOSP,,1445,1901-01-01T00:00:00.000,2129391000.0,10037,"{'type': 'Point', 'coordinates': [-73.940506, 40.81435]}",Harlem Hospital Center,40.81435,-73.940506,,,7002009H,125 Worth Street,,New York,New York City Health and Hospital Corporation,New York,10013,Municipality,Metropolitan Area Regional Office - New York City,5,New York
143,300 Community Drive,Manhasset,29,2000 Marcus Ave.,,New Hyde Park,"Northwell Healthcare, Inc.",New York,11042.0,Nassau,Hospital,HOSP,,541,1901-01-01T00:00:00.000,5165620100.0,11030,"{'type': 'Point', 'coordinates': [-73.702888, 40.77924]}",North Shore University Hospital,40.77924,-73.702888,,,2951001H,300 Community Drive,,Manhasset,North Shore University Hospital Inc,New York,11030,Not for Profit Corporation,Metropolitan Area Regional Office - Long Island,7,New York
144,462 Grider Street,Buffalo,14,,,,,New York,,Erie,Hospital,HOSP,,210,1901-01-01T00:00:00.000,7168983000.0,14215,"{'type': 'Point', 'coordinates': [-78.829224, 42.92717]}",Erie County Medical Center,42.92717,-78.829224,,,1401005H,462 Grider Street,,Buffalo,Erie County Medical Center Corporation,New York,14215,Public Benefit Corporation,Western Regional Office - Buffalo,1,New York
145,785 Mamaroneck Avenue,White Plains,59,111 East 210th Street,,Bronx,"Montefiore Health System, Inc",New York,10467.0,Westchester,Hospital,HOSP,,1046,1901-01-01T00:00:00.000,9149480050.0,10605,"{'type': 'Point', 'coordinates': [-73.75573, 41.015186]}",Winifred Masterson Burke Rehabilitation Hospital,41.015186,-73.75573,,,5902002H,785 Mamaroneck Avenue,,White Plans,The Winifred Masterson Burke Rehabilitation Foundation Inc,New York,10605,Not for Profit Corporation,Metropolitan Area Regional Office - New Rochelle,6,New York
146,101 Hospital Road,Patchogue,51,,,,,New York,,Suffolk,Hospital,HOSP,,885,1901-01-01T00:00:00.000,6316547100.0,11772,"{'type': 'Point', 'coordinates': [-72.978035, 40.778915]}",Long Island Community Hospital,40.778915,-72.978035,,,5123000H,101 Hospital Road,,Patchogue,Brookhaven Memorial Hospital Medical Center Inc,New York,11772,Not for Profit Corporation,Metropolitan Area Regional Office - Long Island,7,New York
147,600 East 233rd Street,Bronx,7094,111 East 210th Street,,Bronx,"Montefiore Health System, Inc",New York,10467.0,Bronx,Hospital,HOSP,,1168,1980-04-28T00:00:00.000,7189209000.0,10466,"{'type': 'Point', 'coordinates': [-73.86142, 40.894569]}",Montefiore Medical Center-Wakefield Hospital,40.894569,-73.86142,1169.0,Montefiore Medical Center - Henry & Lucy Moses Div,7000006H,111 East 210th Street,,Bronx,Montefiore Medical Center,New York,10467,Not for Profit Corporation,Metropolitan Area Regional Office - New York City,5,New York
148,121 Dekalb Avenue,Brooklyn,7095,,,,,New York,,Kings,Hospital,HOSP,,1288,1901-01-01T00:00:00.000,7182508000.0,11201,"{'type': 'Point', 'coordinates': [-73.977455, 40.689842]}",Brooklyn Hospital Center - Downtown Campus,40.689842,-73.977455,,,7001003H,121 Dekalb Ave,,Brooklyn,The Brooklyn Hospital Center,New York,11201,Not for Profit Corporation,Metropolitan Area Regional Office - New York City,5,New York
149,3424 Kossuth Avenue & 210th Street,Bronx,7094,,,,,New York,,Bronx,Hospital,HOSP,,1186,1901-01-01T00:00:00.000,7185193500.0,10467,"{'type': 'Point', 'coordinates': [-73.881538, 40.880512]}",North Central Bronx Hospital,40.880512,-73.881538,,,7000024H,125 Worth Street,,New York,New York City Health and Hospital Corporation,New York,10013,Municipality,Metropolitan Area Regional Office - New York City,5,New York
150,1111 Amsterdam Avenue,New York,7093,One Gustave L. Levy Place,,New York,"Mount Sinai Hospitals Group, Inc.",New York,10029.0,New York,Hospital,HOSP,,1469,1901-01-01T00:00:00.000,2125234295.0,10025,"{'type': 'Point', 'coordinates': [-73.961639, 40.805912]}",Mount Sinai St. Luke's,40.805912,-73.961639,1466.0,Mount Sinai West,7002032H,Amsterdam Avenue At 114th Street,,New York,St Lukes Roosevelt Hospital Center Inc,New York,10025,Not for Profit Corporation,Metropolitan Area Regional Office - New York City,5,New York
151,170 William Street,New York,7093,,,,,New York,,New York,Hospital,HOSP,,1437,1901-01-01T00:00:00.000,2123125175.0,10038,"{'type': 'Point', 'coordinates': [-74.005486, 40.710426]}",New York-Presbyterian/Lower Manhattan Hospital,40.710426,-74.005486,1458.0,New York Presbyterian Hospital - New York Weill Cornell Center,7002054H,622 West 168th Street,,New York,The New York and Presbyterian Hospital,New York,10032,Not for Profit Corporation,Metropolitan Area Regional Office - New York City,5,New York
152,2209 Genesee St,Utica,32,1656 Champlin Ave,,Utica,Mohawk Valley Health System,New York,13502.0,Oneida,Hospital,HOSP,,598,1901-01-01T00:00:00.000,3157988100.0,13501,"{'type': 'Point', 'coordinates': [-75.267189, 43.083561]}",St Elizabeth Medical Center,43.083561,-75.267189,,,3202002H,2209 Genesee St,,Utica,St Elizabeth Medical Center,New York,13501,Not for Profit Corporation,Central New York Regional Office,3,New York
153,89th Avenue & Van Wyck Expressway,Jamaica,7096,,,,,New York,,Queens,Hospital,HOSP,,1629,1901-01-01T00:00:00.000,7182066000.0,11418,"{'type': 'Point', 'coordinates': [-73.816299, 40.701412]}",Jamaica Hospital Medical Center,40.701412,-73.816299,,,7003003H,89th Ave & Van Wyck Expressway,,Jamaica,Jamaica Hospital Inc,New York,11418,Not for Profit Corporation,Metropolitan Area Regional Office - New York City,5,New York
154,535 E 70th Street,New York,7093,,,,,New York,,New York,Hospital,HOSP,,1447,1901-01-01T00:00:00.000,2126061236.0,10021,"{'type': 'Point', 'coordinates': [-73.954185, 40.765381]}",Hospital for Special Surgery,40.765381,-73.954185,,,7002012H,535 East 70th St,,New York,NY Society for the Relief of The Ruptured & Crippled,New York,10021,Not for Profit Corporation,Metropolitan Area Regional Office - New York City,5,New York
155,967 North Broadway,Yonkers,59,967 North Broadway,,Yonkers,"Riverside Health Care System, Inc.",New York,10701.0,Westchester,Hospital,HOSP,,1097,1901-01-01T00:00:00.000,9149644200.0,10701,"{'type': 'Point', 'coordinates': [-73.88503299999999, 40.968262]}",SJRH - St Johns Division,40.968262,-73.885033,,,5907001H,967 North Broadway,,Yonkers,St Johns Riverside Hospital Inc,New York,10701,Not for Profit Corporation,Metropolitan Area Regional Office - New Rochelle,6,New York
156,350 Parrish Street,Canandaigua,34,,,,,New York,,Ontario,Hospital,HOSP,,678,1901-01-01T00:00:00.000,7163966527.0,14424,"{'type': 'Point', 'coordinates': [-77.289818, 42.875027]}",F F Thompson Hospital,42.875027,-77.289818,,,3429000H,350 Parrish St,,Canan Daigua,FF Thompson Hospital Inc,New York,14424,Not for Profit Corporation,Western Regional Office - Rochester,2,New York
157,110 W Sixth Street,Oswego,37,,,,,New York,,Oswego,Hospital,HOSP,,727,1901-01-01T00:00:00.000,3153495511.0,13126,"{'type': 'Point', 'coordinates': [-76.516434, 43.454781]}",Oswego Hospital,43.454781,-76.516434,,,3702000H,110 West Sixth Street,,Oswego,Oswego Hospital Inc,New York,13126,Not for Profit Corporation,Central New York Regional Office,3,New York
158,2 Coulter Road,Clifton Springs,34,89 Genesee Street,,Rochester,Rochester Regional Health,New York,14611.0,Ontario,Hospital,HOSP,,676,1901-01-01T00:00:00.000,3154621311.0,14432,"{'type': 'Point', 'coordinates': [-77.138863, 42.960537]}",Clifton Springs Hospital and Clinic,42.960537,-77.138863,,,3421000H,2 Coulter Road,,Clifton Springs,Clifton Springs Sanitarium Co,New York,14432,Not for Profit Corporation,Western Regional Office - Rochester,2,New York
159,2215 Burdett Avenue,Troy,41,315 South Manning Boulevard,,Albany,St. Peter's Health Partners,New York,12208.0,Rensselaer,Hospital,HOSP,,756,1901-01-01T00:00:00.000,5182713300.0,12180,"{'type': 'Point', 'coordinates': [-73.671455, 42.733574]}",Samaritan Hospital,42.733574,-73.671455,,,4102002H,2215 Burdett Avenue,,Troy,Samaritan Hospital of Troy NY Inc,New York,12180,Not for Profit Corporation,Capital District Regional Office,4,New York
160,3 Mercycare Lane,Guilderland,1,315 South Manning Boulevard,,Albany,St. Peter's Health Partners,New York,12208.0,Albany,Hospital,HOSP,,9431,2012-12-28T00:00:00.000,5184526701.0,12084,"{'type': 'Point', 'coordinates': [-73.904968, 42.701252]}",St. Peter's Addiction Recovery Center,42.701252,-73.904968,5.0,St Peters Hospital,0101004H,315 South Manning Blvd,,Albany,St Peters Hospital Inc,New York,12208,Not for Profit Corporation,Capital District Regional Office,4,New York
161,515 Main Street,Olean,4,515 Main Street,,Olean,Upper Allegheny Health System,New York,14760.0,Cattaraugus,Hospital,HOSP,7163756394.0,66,1901-01-01T00:00:00.000,7163756171.0,14760,"{'type': 'Point', 'coordinates': [-78.42688, 42.089844]}",Olean General Hospital,42.089844,-78.42688,,,0401001H,515 Main Street,,Olean,Olean General Hospital Inc,New York,14760,Not for Profit Corporation,Western Regional Office - Buffalo,1,New York
162,One Gustave L Levy Place,New York,7093,One Gustave L. Levy Place,,New York,"Mount Sinai Hospitals Group, Inc.",New York,10029.0,New York,Hospital,HOSP,,1456,1901-01-01T00:00:00.000,2122417005.0,10029,"{'type': 'Point', 'coordinates': [-73.953766, 40.790482]}",Mount Sinai Hospital,40.790482,-73.953766,,,7002024H,One Gustave L Levy Place,,New York,The Mount Sinai Hospital,New York,10029,Not for Profit Corporation,Metropolitan Area Regional Office - New York City,5,New York
163,224 East Main St,Springville,14,,,,,New York,,Erie,Hospital,HOSP,,280,1901-01-01T00:00:00.000,7165922871.0,14141,"{'type': 'Point', 'coordinates': [-78.659103, 42.508575]}",Bertrand Chaffee Hospital,42.508575,-78.659103,,,1427000H,224 East Main Street,,Springville,Bertrand Chaffee Hospital,New York,14141,Not for Profit Corporation,Western Regional Office - Buffalo,1,New York
164,2475 St Raymond Avenue,Bronx,7094,111 East 210th Street,,Bronx,"Montefiore Health System, Inc",New York,10467.0,Bronx,Hospital,HOSP,,1185,1979-08-01T00:00:00.000,7184307359.0,10461,"{'type': 'Point', 'coordinates': [-73.848244, 40.840431]}",Montefiore Medical Center - Montefiore Westchester Square,40.840431,-73.848244,1169.0,Montefiore Medical Center - Henry & Lucy Moses Div,7000006H,111 East 210th Street,,Bronx,Montefiore Medical Center,New York,10467,Not for Profit Corporation,Metropolitan Area Regional Office - New York City,5,New York
165,33-57 Harrison Street,Johnson City,3,,,,,New York,,Broome,Hospital,HOSP,,58,1979-02-01T00:00:00.000,6077636000.0,13790,"{'type': 'Point', 'coordinates': [-75.959122, 42.115063]}",United Health Services Hospitals Inc. - Wilson Medical Center,42.115063,-75.959122,42.0,United Health Services Hospitals Inc. - Binghamton General Hospital,0303001H,Po Box 54o,,Johnson City,United Health Services Hospitals Inc,New York,13790,Not for Profit Corporation,Central New York Regional Office,3,New York
166,4295 Hempstead Turnpike,Bethpage,29,1 Huntington Quadrangle,,Melville,"Catholic Health System of Long Island, Inc.",New York,11747.0,Nassau,Hospital,HOSP,,551,1980-08-01T00:00:00.000,5165796000.0,11714,"{'type': 'Point', 'coordinates': [-73.478714, 40.725853]}",St. Joseph Hospital,40.725853,-73.478714,,,2952006H,4295 Hempstead Turnpike,,Bethage,WSNCHS North Inc,New York,11714,Not for Profit Corporation,Metropolitan Area Regional Office - Long Island,7,New York
167,2210 Troy Road,Niskayuna,46,,,,,New York,,Schenectady,Hospital,HOSP,,848,1979-08-01T00:00:00.000,5183469400.0,12309,"{'type': 'Point', 'coordinates': [-73.879089, 42.793575]}",Ellis Hospital - Bellevue Woman's Care Center Division,42.793575,-73.879089,829.0,Ellis Hospital,4601001H,Route 146,,Schenectady,Ellis Hospital Inc,New York,12308,Not for Profit Corporation,Capital District Regional Office,4,New York
168,201 Manor Place,Greenport,51,,,,,New York,,Suffolk,Hospital,HOSP,,891,1901-01-01T00:00:00.000,6314771000.0,11944,"{'type': 'Point', 'coordinates': [-72.361282, 41.110958]}",Eastern Long Island Hospital,41.110958,-72.361282,,,5127000H,201 Manor Place,,Greenport,Eastern Long Island Hospital Assoc Inc,New York,11944,Not for Profit Corporation,Metropolitan Area Regional Office - Long Island,7,New York
169,First Ave at 16th Street,New York,7093,One Gustave L. Levy Place,,New York,"Mount Sinai Hospitals Group, Inc.",New York,10029.0,New York,Hospital,HOSP,,1439,1901-01-01T00:00:00.000,2124202873.0,10003,"{'type': 'Point', 'coordinates': [-73.981598, 40.732666]}",Mount Sinai Beth Israel,40.732666,-73.981598,,,7002002H,10 Nathan Perlman Place,,New York,Beth Israel Medical Center Inc,New York,10003,Not for Profit Corporation,Metropolitan Area Regional Office - New York City,5,New York
170,21 Bloomingdale Road,White Plains,59,,,,,New York,,Westchester,Hospital,HOSP,,1047,1979-08-01T00:00:00.000,9146829100.0,10605,"{'type': 'Point', 'coordinates': [-73.758293, 41.029835]}",New York Presbyterian Hospital - Westchester Division,41.029835,-73.758293,1458.0,New York Presbyterian Hospital - New York Weill Cornell Center,7002054H,622 West 168th Street,,New York,The New York and Presbyterian Hospital,New York,10032,Not for Profit Corporation,Metropolitan Area Regional Office - New Rochelle,6,New York
171,156 West Avenue,Brockport,27,,,,,New York,,Monroe,Hospital,HOSP,5853956036.0,9531,2013-07-15T00:00:00.000,5857851000.0,14420,"{'type': 'Point', 'coordinates': [-77.944695, 43.220116]}",URMC Strong West,43.220116,-77.944695,413.0,Strong Memorial Hospital,2701005H,601 Elmwood Avenue,,Rochester,University of Rochester Inc,New York,14620,Not for Profit Corporation,Western Regional Office - Rochester,2,New York
172,150 55th Street,Brooklyn,7095,,,,,New York,,Kings,Hospital,HOSP,,1304,1901-01-01T00:00:00.000,7186307300.0,11220,"{'type': 'Point', 'coordinates': [-74.020439, 40.646591]}",NYU Langone Hospital-Brooklyn,40.646591,-74.020439,1463.0,NYU Langone Hospitals,7002053H,550 First Avenue,,New York,NYU Langone Hospitals,New York,10016,Not for Profit Corporation,Metropolitan Area Regional Office - New York City,5,New York
173,2215 Burdett Avenue,Troy,41,,,,,New York,,Rensselaer,Hospital,HOSP,,9250,2011-10-01T00:00:00.000,5182713655.0,12180,"{'type': 'Point', 'coordinates': [-73.671455, 42.733574]}",The Burdett Care Center,42.733574,-73.671455,,,4102004H,2215 Burdett Avenue,Suite 200,Troy,"The Burdett Care Center, Inc",New York,12180,Not for Profit Corporation,Capital District Regional Office,4,New York
174,79-01 Broadway,Elmhurst,7096,,,,,New York,,Queens,Hospital,HOSP,,1626,1901-01-01T00:00:00.000,7183344000.0,11373,"{'type': 'Point', 'coordinates': [-73.885719, 40.74432]}",Elmhurst Hospital Center,40.74432,-73.885719,,,7003000H,125 Worth Street,,New York,New York City Health and Hospital Corporation,New York,10013,Municipality,Metropolitan Area Regional Office - New York City,5,New York
175,127 North St,Batavia,18,89 Genesee Street,,Rochester,Rochester Regional Health,New York,14611.0,Genesee,Hospital,HOSP,,339,1901-01-01T00:00:00.000,5853436030.0,14020,"{'type': 'Point', 'coordinates': [-78.177475, 43.00404]}",United Memorial Medical Center North Street Campus,43.00404,-78.177475,,,1801000H,127 North St,,Batavia,United Memorial Medical Center,New York,14020,Not for Profit Corporation,Western Regional Office - Buffalo,1,New York
176,1656 Champlin  Avenue,Utica,32,1656 Champlin Ave,,Utica,Mohawk Valley Health System,New York,13502.0,Oneida,Hospital,HOSP,,599,1901-01-01T00:00:00.000,3156246001.0,13502,"{'type': 'Point', 'coordinates': [-75.275383, 43.098179]}",Faxton-St Lukes Healthcare St Lukes Division,43.098179,-75.275383,,,3202003H,1656 Champlin Avenue,,New Hartford,Faxton-St Lukes Healthcare,New York,13503,Not for Profit Corporation,Central New York Regional Office,3,New York
177,1101 Nott Street,Schenectady,46,,,,,New York,,Schenectady,Hospital,HOSP,,829,1901-01-01T00:00:00.000,5182434000.0,12308,"{'type': 'Point', 'coordinates': [-73.918747, 42.819839]}",Ellis Hospital,42.819839,-73.918747,,,4601001H,Route 146,,Schenectady,Ellis Hospital Inc,New York,12308,Not for Profit Corporation,Capital District Regional Office,4,New York
178,622 West 168th Street,New York,7093,,,,,New York,,New York,Hospital,HOSP,,1464,1980-02-01T00:00:00.000,2123052500.0,10032,"{'type': 'Point', 'coordinates': [-73.940704, 40.841415]}",New York Presbyterian Hospital - Columbia Presbyterian Center,40.841415,-73.940704,1458.0,New York Presbyterian Hospital - New York Weill Cornell Center,7002054H,622 West 168th Street,,New York,The New York and Presbyterian Hospital,New York,10032,Not for Profit Corporation,Metropolitan Area Regional Office - New York City,5,New York
179,600 Northern Blvd,Albany,1,315 South Manning Boulevard,,Albany,St. Peter's Health Partners,New York,12208.0,Albany,Hospital,HOSP,,4,1901-01-01T00:00:00.000,5184713221.0,12204,"{'type': 'Point', 'coordinates': [-73.749268, 42.674271]}",Albany Memorial Hospital,42.674271,-73.749268,,,0101003H,Memorial Hospital,,Albany,"Memorial Hospital, Albany NY",New York,12204,Not for Profit Corporation,Capital District Regional Office,4,New York
180,1270 Belmont Avenue,Schenectady,46,315 South Manning Boulevard,,Albany,St. Peter's Health Partners,New York,12208.0,Schenectady,Hospital,HOSP,,831,1901-01-01T00:00:00.000,5183824500.0,12308,"{'type': 'Point', 'coordinates': [-73.913651, 42.82206]}",Sunnyview Hospital and Rehabilitation Center,42.82206,-73.913651,,,4601004H,1270 Belmont Avenue,,Schenectady,Sunnyview Hospital and Rehabilitation Center Inc,New York,12308,Not for Profit Corporation,Capital District Regional Office,4,New York
181,1540 Maple Road,Amherst,14,,,,,New York,,Erie,Hospital,HOSP,,3067,1979-10-15T00:00:00.000,7165683600.0,14221,"{'type': 'Point', 'coordinates': [-78.72982, 42.991219]}",Millard Fillmore Suburban Hospital,42.991219,-78.72982,207.0,Buffalo General Medical Center,1401014H,100 High Street,,Buffalo,Kaleida Health,New York,14203,Not for Profit Corporation,Western Regional Office - Buffalo,1,New York
182,75 Beekman St,Plattsburgh,9,111 Colchester Avenue,,Burlington,"The University of Vermont Health Network, Inc.",New York,5401.0,Clinton,Hospital,HOSP,,135,1901-01-01T00:00:00.000,5185612000.0,12901,"{'type': 'Point', 'coordinates': [-73.466751, 44.700279]}",The University of Vermont Health Network - Champlain Valley Physicians Hospital,44.700279,-73.466751,,,0901001H,100 Beekman Street,,Plattsburgh,Champlain Valley Physicians Hospital Medical Center Inc,New York,12901,Not for Profit Corporation,Capital District Regional Office,4,New York
183,435 East Henrietta Road,Rochester,27,,,,,New York,,Monroe,Hospital,HOSP,,414,1901-01-01T00:00:00.000,5857606500.0,14620,"{'type': 'Point', 'coordinates': [-77.616165, 43.112251]}",Monroe Community Hospital,43.112251,-77.616165,,,2701006H,111 Westfall Road,,Rochester,County of Monroe,New York,14692,County,Western Regional Office - Rochester,2,New York
184,525 East 68th Street,New York,7093,,,,,New York,,New York,Hospital,HOSP,,1458,1978-02-01T00:00:00.000,2127465454.0,10021,"{'type': 'Point', 'coordinates': [-73.954926, 40.76408]}",New York Presbyterian Hospital - New York Weill Cornell Center,40.76408,-73.954926,,,7002054H,622 West 168th Street,,New York,The New York and Presbyterian Hospital,New York,10032,Not for Profit Corporation,Metropolitan Area Regional Office - New York City,5,New York
185,101 Dates Drive,Ithaca,54,101 Dates Drive,,Ithaca,"Cayuga Health System, Inc.",New York,14850.0,Tompkins,Hospital,HOSP,,977,1901-01-01T00:00:00.000,6072744011.0,14850,"{'type': 'Point', 'coordinates': [-76.536896, 42.469826]}",Cayuga Medical Center at Ithaca,42.469826,-76.536896,,,5401001H,1285 Trumansburg Road,,Ithaca,"Cayuga Medical Center at Ithaca, Inc",New York,14850,Not for Profit Corporation,Central New York Regional Office,3,New York
186,89 Genesee Street,Rochester,27,89 Genesee Street,,Rochester,Rochester Regional Health,New York,14611.0,Monroe,Hospital,HOSP,,412,1970-01-01T00:00:00.000,5857237000.0,14611,"{'type': 'Point', 'coordinates': [-77.636139, 43.14901]}",The Unity Hospital of Rochester-St Marys Campus,43.14901,-77.636139,471.0,The Unity Hospital of Rochester,2754001H,1555 Long Pond Road,,Rochester,Park Ridge Hospital Inc,New York,14626,Not for Profit Corporation,Western Regional Office - Rochester,2,New York
187,45th Avenue & Parsons Blvd,Flushing,7096,,,,,New York,,Queens,Hospital,HOSP,,1628,1901-01-01T00:00:00.000,7186705918.0,11355,"{'type': 'Point', 'coordinates': [-73.815475, 40.755531]}",Flushing Hospital Medical Center,40.755531,-73.815475,,,7003001H,45th Avenue And Parsons Boulevard,,Flushing,Flushing Hospital and Medical Center Inc,New York,11355,Not for Profit Corporation,Metropolitan Area Regional Office - New York City,5,New York
188,1 Guthrie Drive,Corning,50,1 Guthrie Square,,Sayre,The Guthrie Clinic,New York,18840.0,Steuben,Hospital,HOSP,,866,1901-01-01T00:00:00.000,6079377200.0,14830,"{'type': 'Point', 'coordinates': [-77.047562, 42.141293]}",Corning Hospital,42.141293,-77.047562,,,5001000H,South Wilbur Ave,,"Sayre, Pa",Corning Hospital Inc,New York,18840,Not for Profit Corporation,Western Regional Office - Rochester,2,New York
189,241 North Road,Poughkeepsie,13,,,,,New York,,Dutchess,Hospital,HOSP,,180,1901-01-01T00:00:00.000,8454835000.0,12601,"{'type': 'Point', 'coordinates': [-73.92942, 41.717392]}",Mid-Hudson Valley Division of Westchester Medical Center,41.717392,-73.92942,1139.0,Westchester Medical Center,5957001H,"100 Woods Road, Taylor Pavilion 2nd Floor",,Valhalla,Westchester County Health Care Corporation,New York,10595,Public Benefit Corporation,Metropolitan Area Regional Office - New Rochelle,6,New York
190,41 East Post Road,White Plains,59,111 East 210th Street,,Bronx,"Montefiore Health System, Inc",New York,10467.0,Westchester,Hospital,HOSP,,1045,1901-01-01T00:00:00.000,9146810600.0,10601,"{'type': 'Point', 'coordinates': [-73.769585, 41.026333]}",White Plains Hospital Center,41.026333,-73.769585,,,5902001H,Davis Avenue At East Post Road,,White Plains,White Plains Hospital Medical Center,New York,10601,Not for Profit Corporation,Metropolitan Area Regional Office - New Rochelle,6,New York
191,445 Tremont Street,North Tonawanda,31,,,,,New York,,Niagara,Hospital,HOSP,,581,1979-08-21T00:00:00.000,7166944500.0,14120,"{'type': 'Point', 'coordinates': [-78.862457, 43.026154]}",Degraff Memorial Hospital,43.026154,-78.862457,207.0,Buffalo General Medical Center,1401014H,100 High Street,,Buffalo,Kaleida Health,New York,14203,Not for Profit Corporation,Western Regional Office - Buffalo,1,New York
192,2600 William Street,Newfane,31,,,,,New York,,Niagara,Hospital,HOSP,,9894,2016-03-15T00:00:00.000,,14108,"{'type': 'Point', 'coordinates': [-78.708187, 43.288318]}",Eastern Niagara Hospital - Newfane Division,43.288318,-78.708187,565.0,Eastern Niagara Hospital - Lockport Division,3101000H,521 East Avenue,,Lockport,Eastern Niagara Hospital,New York,14094,Not for Profit Corporation,Western Regional Office - Buffalo,1,New York
193,550 First Avenue,New York,7093,,,,,New York,,New York,Hospital,HOSP,,1463,1980-06-17T00:00:00.000,2122635500.0,10016,"{'type': 'Point', 'coordinates': [-73.974159, 40.742874]}",NYU Langone Hospitals,40.742874,-73.974159,,,7002053H,550 First Avenue,,New York,NYU Langone Hospitals,New York,10016,Not for Profit Corporation,Metropolitan Area Regional Office - New York City,5,New York
194,15 Maple Avenue,Warwick,35,255 Lafayette Avenue,,Suffern,Bon Secours Charity Health System Inc.,New York,10901.0,Orange,Hospital,HOSP,,704,1901-01-01T00:00:00.000,8459862276.0,10990,"{'type': 'Point', 'coordinates': [-74.357185, 41.260586]}",St Anthony Community Hospital,41.260586,-74.357185,,,3529000H,15-19 Maple Avenue,,Warwick,Franciscan Sisters of the Poor Inc,New York,10990,Not for Profit Corporation,Metropolitan Area Regional Office - New Rochelle,6,New York
195,888 Old Country Road,Plainview,29,2000 Marcus Ave.,,New Hyde Park,"Northwell Healthcare, Inc.",New York,11042.0,Nassau,Hospital,HOSP,,552,1979-02-01T00:00:00.000,5167193000.0,11803,"{'type': 'Point', 'coordinates': [-73.478264, 40.774471]}",Plainview Hospital,40.774471,-73.478264,,,2952005H,888 Old County Road,,Plainview,Plainview Hospital,New York,11803,Not for Profit Corporation,Metropolitan Area Regional Office - Long Island,7,New York
196,327 Beach 19th Street,Far Rockaway,7096,,,,,New York,,Queens,Hospital,HOSP,,1635,1979-09-27T00:00:00.000,7188687320.0,11691,"{'type': 'Point', 'coordinates': [-73.752769, 40.598637]}",St Johns Episcopal Hospital So Shore,40.598637,-73.752769,,,7001024H,393 Front St,,Hempstead,Episcopal Health Services Inc,New York,11550,Not for Profit Corporation,Metropolitan Area Regional Office - New York City,5,New York
197,601 Elmwood Avenue,Rochester,27,,,,,New York,,Monroe,Hospital,HOSP,5852731118.0,413,1901-01-01T00:00:00.000,5852758387.0,14642,"{'type': 'Point', 'coordinates': [-77.623779, 43.124336]}",Strong Memorial Hospital,43.124336,-77.623779,,,2701005H,601 Elmwood Avenue,,Rochester,University of Rochester Inc,New York,14620,Not for Profit Corporation,Western Regional Office - Rochester,2,New York
198,100 Woods Road,Valhalla,59,,,,,New York,,Westchester,Hospital,HOSP,9144938027.0,1139,1901-01-01T00:00:00.000,9144937018.0,10595,"{'type': 'Point', 'coordinates': [-73.803993, 41.08773]}",Westchester Medical Center,41.08773,-73.803993,,,5957001H,"100 Woods Road, Taylor Pavilion 2nd Floor",,Valhalla,Westchester County Health Care Corporation,New York,10595,Public Benefit Corporation,Metropolitan Area Regional Office - New Rochelle,6,New York
199,5141 Broadway,New York,7093,,,,,New York,,New York,Hospital,HOSP,,3975,1988-07-18T00:00:00.000,2123053710.0,10034,"{'type': 'Point', 'coordinates': [-73.912773, 40.872475]}",New York Presbyterian Hospital - Allen Hospital,40.872475,-73.912773,1458.0,New York Presbyterian Hospital - New York Weill Cornell Center,7002054H,622 West 168th Street,,New York,The New York and Presbyterian Hospital,New York,10032,Not for Profit Corporation,Metropolitan Area Regional Office - New York City,5,New York
200,7571 State Route 54,Bath,50,600 Roe Avenue,,Elmira,Arnot Ogden Medical Center,New York,14901.0,Steuben,Hospital,HOSP,,873,1901-01-01T00:00:00.000,6077768500.0,14810,"{'type': 'Point', 'coordinates': [-77.278656, 42.372952]}",Ira Davenport Memorial Hospital Inc,42.372952,-77.278656,,,5022000H,Po Box 350 Route 54,,Bath,Ira Davenport Memorial Hospital Inc,New York,14810,Not for Profit Corporation,Western Regional Office - Rochester,2,New York
201,100 Port Washington Boulevard,Roslyn,29,1 Huntington Quadrangle,,Melville,"Catholic Health System of Long Island, Inc.",New York,11747.0,Nassau,Hospital,HOSP,,563,1901-01-01T00:00:00.000,5165626000.0,11576,"{'type': 'Point', 'coordinates': [-73.669098, 40.800301]}",St Francis Hospital,40.800301,-73.669098,,,2953000H,1 Huntington Quadrangle Suite 4 Co4,,Melville,St Francis Hospital Inc,New York,11747,Not for Profit Corporation,Metropolitan Area Regional Office - Long Island,7,New York
202,1 Hospital Drive,Massena,44,,,,,New York,,Saint Lawrence,Hospital,HOSP,,804,1901-01-01T00:00:00.000,3157641711.0,13662,"{'type': 'Point', 'coordinates': [-74.907951, 44.936363]}",Massena Memorial Hospital,44.936363,-74.907951,,,4402000H,Town Hall,,Massena,Town of Massena,New York,13662,Municipality,Central New York Regional Office,3,New York
203,160 East Main Street,Port Jervis,35,255 Lafayette Avenue,,Suffern,Bon Secours Charity Health System Inc.,New York,10901.0,Orange,Hospital,HOSP,,708,1901-01-01T00:00:00.000,8458565351.0,12771,"{'type': 'Point', 'coordinates': [-74.682487, 41.367916]}",Bon Secours Community Hospital,41.367916,-74.682487,,,3535001H,160 East Main Street,,Port Jervis,Bon Secours Community Hospital,New York,12771,Not for Profit Corporation,Metropolitan Area Regional Office - New Rochelle,6,New York
204,207 Foote Avenue,Jamestown,6,207 Foote Avenue,,Jamestown,"UPMC Chautauqua Services, Inc.",New York,14701.0,Chautauqua,Hospital,HOSP,7166648336.0,103,1901-01-01T00:00:00.000,7164870141.0,14701,"{'type': 'Point', 'coordinates': [-79.232872, 42.091236]}",UPMC Chautauqua at WCA,42.091236,-79.232872,,,0602001H,207 Foote Avenue,,Jamestown,UPMC Chautauqua at WCA,New York,14701,Not for Profit Corporation,Western Regional Office - Buffalo,1,New York
205,240 Meeting House Lane,Southampton,51,,,,,New York,,Suffolk,Hospital,HOSP,,889,1901-01-01T00:00:00.000,5167268200.0,11968,"{'type': 'Point', 'coordinates': [-72.380692, 40.885757]}",University Hospital - Stony Brook Southampton Hospital,40.885757,-72.380692,245.0,University Hospital,5151001H,178-50 Linden Blvd,,Jamaica,State University of New York,New York,11434,State,Metropolitan Area Regional Office - Long Island,7,New York
206,221 Jericho Turnpike,Syosset,29,2000 Marcus Ave.,,New Hyde Park,"Northwell Healthcare, Inc.",New York,11042.0,Nassau,Hospital,HOSP,,550,1984-11-18T00:00:00.000,5164966400.0,11791,"{'type': 'Point', 'coordinates': [-73.508614, 40.810238]}",Syosset Hospital,40.810238,-73.508614,541.0,North Shore University Hospital,2951001H,300 Community Drive,,Manhasset,North Shore University Hospital Inc,New York,11030,Not for Profit Corporation,Metropolitan Area Regional Office - Long Island,7,New York
207,1752 Park Avenue,New York,7093,,,,,New York,,New York,Hospital,HOSP,,1486,1901-01-01T00:00:00.000,2123188000.0,10035,"{'type': 'Point', 'coordinates': [-73.940811, 40.802979]}",Henry J. Carter Specialty Hospital,40.802979,-73.940811,,,7002050H,125 Worth Street,,New York,New York City Health and Hospital Corporation,New York,10013,Municipality,Metropolitan Area Regional Office - New York City,5,New York
208,396 Broadway,Kingston,55,741 Grant Street,,Lake Katrine,"Health Alliance, Inc",New York,12449.0,Ulster,Hospital,HOSP,8453313238.0,990,1901-01-01T00:00:00.000,8453342750.0,12401,"{'type': 'Point', 'coordinates': [-73.995453, 41.92643]}",HealthAlliance Hospital Broadway Campus,41.92643,-73.995453,,,5501001H,396 Broadway,,Kingston,HealthAlliance Hospital Broadway Campus,New York,12401,Not for Profit Corporation,Metropolitan Area Regional Office - New Rochelle,6,New York
209,196-198 North Street,Geneva,34,,,,,New York,,Ontario,Hospital,HOSP,,671,1901-01-01T00:00:00.000,3157874000.0,14456,"{'type': 'Point', 'coordinates': [-76.987427, 42.875748]}",Geneva General Hospital,42.875748,-76.987427,,,3402000H,196 198 North Street,,Geneva,Geneva General Hospital Inc,New York,14456,Not for Profit Corporation,Western Regional Office - Rochester,2,New York
210,451 Clarkson Avenue,Brooklyn,7095,,,,,New York,,Kings,Hospital,HOSP,,1301,1901-01-01T00:00:00.000,7182453901.0,11203,"{'type': 'Point', 'coordinates': [-73.944099, 40.655823]}",Kings County Hospital Center,40.655823,-73.944099,,,7001016H,125 Worth Street,,New York,New York City Health and Hospital Corporation,New York,10013,Municipality,Metropolitan Area Regional Office - New York City,5,New York
211,102-01 66th Road,Forest Hills,7096,2000 Marcus Ave.,,New Hyde Park,"Northwell Healthcare, Inc.",New York,11042.0,Queens,Hospital,HOSP,,1638,1901-01-01T00:00:00.000,5165624060.0,11375,"{'type': 'Point', 'coordinates': [-73.851036, 40.728745]}",Long Island Jewish Forest Hills,40.728745,-73.851036,1630.0,Long Island Jewish Medical Center,7003004H,270-05 76 Avenue,,New Hyde Park,Long Island Jewish Medical Center,New York,11040,Not for Profit Corporation,Metropolitan Area Regional Office - New York City,5,New York
212,3201 Kings Highway,Brooklyn,7095,One Gustave L. Levy Place,,New York,"Mount Sinai Hospitals Group, Inc.",New York,10029.0,Kings,Hospital,HOSP,,1324,1979-08-01T00:00:00.000,7189513000.0,11234,"{'type': 'Point', 'coordinates': [-73.94323, 40.617954]}",Mount Sinai Brooklyn,40.617954,-73.94323,1439.0,Mount Sinai Beth Israel,7002002H,10 Nathan Perlman Place,,New York,Beth Israel Medical Center Inc,New York,10003,Not for Profit Corporation,Metropolitan Area Regional Office - New York City,5,New York
213,43 New Scotland Avenue,Albany,1,New Scotland Avenue,,Albany,Albany Medical Center,New York,12208.0,Albany,Hospital,HOSP,5182623398.0,1,1901-01-01T00:00:00.000,5182623474.0,12208,"{'type': 'Point', 'coordinates': [-73.773834, 42.65337]}",Albany Medical Center Hospital,42.65337,-73.773834,,,0101000H,New Scotland Avenue,,Albany,Albany Medical Center Hospital,New York,12208,Not for Profit Corporation,Capital District Regional Office,4,New York
214,259 First Street,Mineola,29,550 First Avenue,,New York,NYU Langone Health System,New York,10016.0,Nassau,Hospital,HOSP,,511,1901-01-01T00:00:00.000,5166630333.0,11501,"{'type': 'Point', 'coordinates': [-73.643082, 40.741699]}",NYU Winthrop Hospital,40.741699,-73.643082,,,2908000H,259 First St,,Mineola,NYU Winthrop Hospital,New York,11501,Not for Profit Corporation,Metropolitan Area Regional Office - Long Island,7,New York
215,275 North Street,Harrison,59,,,,,New York,,Westchester,Hospital,HOSP,9149255156.0,1133,1979-08-01T00:00:00.000,9149255300.0,10528,"{'type': 'Point', 'coordinates': [-73.710457, 40.989265]}",St Joseph's MC-St Vincents Westchester Division,40.989265,-73.710457,1098.0,St Joseph's Medical Center,5907002H,127 S Broadway,,Yonkers,"St. Josephs Hospital, Yonkers",New York,10701,Not for Profit Corporation,Metropolitan Area Regional Office - New Rochelle,6,New York
216,75 North Country Road,Port Jefferson,51,,,,,New York,,Suffolk,Hospital,HOSP,,895,1901-01-01T00:00:00.000,6314731320.0,11777,"{'type': 'Point', 'coordinates': [-73.053894, 40.93816]}",John T Mather Memorial Hospital of Port Jefferson New York Inc,40.93816,-73.053894,,,5149000H,North Country Road,,Port Jefferson,John T Mather of Port Jefferson NY Inc,New York,11777,Not for Profit Corporation,Metropolitan Area Regional Office - Long Island,7,New York
217,127 South Broadway,Yonkers,59,,,,,New York,,Westchester,Hospital,HOSP,,1098,1901-01-01T00:00:00.000,9143787000.0,10701,"{'type': 'Point', 'coordinates': [-73.896957, 40.929512]}",St Joseph's Medical Center,40.929512,-73.896957,,,5907002H,127 S Broadway,,Yonkers,"St. Josephs Hospital, Yonkers",New York,10701,Not for Profit Corporation,Metropolitan Area Regional Office - New Rochelle,6,New York
218,462 First Avenue,New York,7093,,,,,New York,,New York,Hospital,HOSP,,1438,1901-01-01T00:00:00.000,2125624132.0,10016,"{'type': 'Point', 'coordinates': [-73.976509, 40.739605]}",Bellevue Hospital Center,40.739605,-73.976509,,,7002001H,125 Worth Street,,New York,New York City Health and Hospital Corporation,New York,10013,Municipality,Metropolitan Area Regional Office - New York City,5,New York
219,1000 South Avenue,Rochester,27,South Avenue At Bellevue Dr,,Rochester,Highland Hospital of Rochester Inc,New York,14620.0,Monroe,Hospital,HOSP,,409,1901-01-01T00:00:00.000,5854732200.0,14620,"{'type': 'Point', 'coordinates': [-77.607544, 43.135769]}",Highland Hospital,43.135769,-77.607544,,,2701001H,601 Elmwood Avenue,,Rochester,"Strong Partners Health System, Inc.",New York,14642,Not for Profit Corporation,Western Regional Office - Rochester,2,New York
220,2209 Genesee Street,Utica,32,,,,,New York,,Oneida,Hospital,HOSP,,7528,1997-10-16T00:00:00.000,3158230808.0,13501,"{'type': 'Point', 'coordinates': [-75.267189, 43.083561]}","Mohawk Valley Heart Institute, Inc",43.083561,-75.267189,,,3202004H,2209 Genesee Street,,Utica,"Mohawk Valley Heart Institute, Inc",New York,13501,Not for Profit Corporation,Central New York Regional Office,3,New York
221,1740-70 Eastchester Road,Bronx,7094,,,,,New York,,Bronx,Hospital,HOSP,,1175,1901-01-01T00:00:00.000,7185182244.0,10461,"{'type': 'Point', 'coordinates': [-73.844658, 40.847294]}",Calvary Hospital Inc,40.847294,-73.844658,,,7000011H,1740-70 Eastchester Road,,Bronx,Calvary Hospital Inc.,New York,10461,Not for Profit Corporation,Metropolitan Area Regional Office - New York City,5,New York
222,211 Church Street,Saratoga Springs,45,New Scotland Avenue,,Albany,Albany Medical Center,New York,12208.0,Saratoga,Hospital,HOSP,,818,1901-01-01T00:00:00.000,5185873222.0,12866,"{'type': 'Point', 'coordinates': [-73.796341, 43.084843]}",Saratoga Hospital,43.084843,-73.796341,,,4501000H,211 Church Street,,Saratoga Springs,The Saratoga Hospital Inc,New York,12866,Not for Profit Corporation,Capital District Regional Office,4,New York
223,707 East Main Street,Middletown,35,4 Harriman Drive,,Goshen,"Greater Hudson Valley Health System, Inc.",New York,10924.0,Orange,Hospital,HOSP,8453332801.0,699,1901-01-01T00:00:00.000,8453331000.0,10940,"{'type': 'Point', 'coordinates': [-74.368744, 41.439953]}",Orange Regional Medical Center,41.439953,-74.368744,,,3523000H,4 Harriman Drive,,Goshen,Orange Regional Medical Center,New York,10924,Not for Profit Corporation,Metropolitan Area Regional Office - New Rochelle,6,New York
224,One Atwell Road,Cooperstown,38,1 Atwell Road,,Cooperstown,Bassett Healthcare Network,New York,13326.0,Otsego,Hospital,HOSP,,746,1901-01-01T00:00:00.000,6075473456.0,13326,"{'type': 'Point', 'coordinates': [-74.922684, 42.695793]}",Mary Imogene Bassett Hospital,42.695793,-74.922684,,,3824000H,Atwell Road,,Cooperstown,Mary Imogene Bassett Hospital Inc,New York,13326,Not for Profit Corporation,Capital District Regional Office,4,New York
225,750 East Adams Street,Syracuse,33,,,,,New York,,Onondaga,Hospital,HOSP,,635,1901-01-01T00:00:00.000,3154645540.0,13210,"{'type': 'Point', 'coordinates': [-76.138809, 43.042622]}",University Hospital SUNY Health Science Center,43.042622,-76.138809,,,3301007H,178-50 Linden Blvd,,Jamaica,State University of New York,New York,11434,State,Central New York Regional Office,3,New York
226,191 North Main Street,Wellsville,2,,,,,New York,,Allegany,Hospital,HOSP,,39,1901-01-01T00:00:00.000,5855931100.0,14895,"{'type': 'Point', 'coordinates': [-77.949974, 42.122921]}",Memorial Hosp of Wm F & Gertrude F Jones A/K/A Jones Memorial Hosp,42.122921,-77.949974,,,0228000H,191 North Main Street,,Wellsville,The Memorial Hospital of William F & Gertrude F Jones Inc,New York,14895,Not for Profit Corporation,Western Regional Office - Buffalo,1,New York
227,1000 North Village Avenue,Rockville Centre,29,1 Huntington Quadrangle,,Melville,"Catholic Health System of Long Island, Inc.",New York,11747.0,Nassau,Hospital,HOSP,,513,1979-08-01T00:00:00.000,5167052525.0,11570,"{'type': 'Point', 'coordinates': [-73.63324, 40.688408]}",Mercy Medical Center,40.688408,-73.63324,,,2909000H,393 Front Street,,Hempstead,Mercy Medical Center,New York,11530,Not for Profit Corporation,Metropolitan Area Regional Office - Long Island,7,New York
